lon,lat,adresse,code_postal,ville,departement,dep_txt,nom_structure,url_lieu,contact_email,contact_tel,source,url_illustration,code_access,code_label
5.049559,47.364205,38 Avenue Françoise Giroud,21000,DIJON,21,D_21,Onlineformapro,,,03 84 76 90 83,,,O,APTIC
5.069047,47.329680,14  rue Camille Claudel,21000,DIJON,21,D_21,PANDA Grésilles,,,03 80 48 84 14,,,M,APTIC-DM
4.491110,47.130870,3 rue de la Gare,21230,ARNAY LE DUC,21,D_21,Centre social et socioculturel du Pays d'Arnay,,,03 80 90 17 55,,,I,APTIC
5.008640,47.289688,7 rue de Longvic,21300,CHENOVE,21,D_21,MJC Chenôve,,,03 80 52 18 64,,,F,APTIC
5.061143,47.285342,Mairie de Longvic - Allée de la Mairie - BP 77,21600,LONGVIC,21,D_21,Médiathèque Michel Etiévant,,,03 80 68 21 60,,,M,APTIC
6.029680,47.234900,2 rue Victor Hugo,25000,BESANCON,25,D_25,AC agir ensemble contre le chômage,,,06 83 91 97 70,,,F,APTIC
5.972170,47.218000,4 Avenue du Parc,25000,BESANCON,25,D_25,DigiFab,http://digifab.fr/,azouz@digifab.fr,06 77 39 41 45,,,F,APTIC
5.973622,47.219166,10 rue Pablo Picasso,25000,BESANCON,25,D_25,Onlineformapro,,,03 84 76 90 83,,,O,
6.052119,47.264612,2b chemin de Palente,25000,BESANCON,25,D_25,Onlineformapro,,,03 84 76 90 83,,,O,APTIC
6.402337,46.834637,52 Grande Rue,25300,LES FOURGS,25,D_25,d@vp@il,,,06 77 90 98 95,,,O,APTIC
6.736854,47.480477,41  grande rue,25550,BAVANS,25,D_25,Association Gestion Actions Socio Culturelles,,,03 81 92 64 25,,,F-I,APTIC
5.571681,46.677747,1025 rue des gentianes,39003,LONS LE SAUNIER,39,D_39,Association Maison commune,,,03 84 47 58 15,,,F,APTIC
5.498227,47.084708,31  rue Julien Feuvrier,39100,DOLE,39,D_39,Savoirs et formation,,,09 50 48 08 84,,,O,APTIC
5.451784,46.802739,5  place du général Michelin,39140,COMMENAILLES,39,D_39,FabLab Atelier Made in iKi,http://madeiniki.org,,06 28 21 65 77,,,F,APTIC
5.909479,46.748612,2 rue de l'égalité,39300,CHAMPAGNOLE,39,D_39,FabLab Champagnole,http://www.fablab-champagnole.com/,fablabchampagnole@gmail.com,06 72 21 56 26,,,F,APTIC
5.454120,46.393877,16  place de la Mairie,39320,VAL SURAN,39,D_39,Association développement Aménagement,,,,,,F,
5.597825,46.868209,13 route de Colonne - LE VISENEY,39800,BERSAILLIN,39,D_39,c.la cle administrative,,,06 71 94 67 08,,,F,APTIC
3.152649,46.989419,14 bis rue Jeanne d'Arc,58000,NEVERS,58,D_58,Conseil départemental de la Nièvre - Service d'accompagnement au numérique,,,06 76 98 70 45,,,I,APTIC
3.143165,46.991958,7 rue du 13ème de ligne,58000,NEVERS,58,D_58,Onlineformapro,,,06 43 08 27 49,,,O,APTIC
6.152081,47.637076,19  rue du Praley  Espace de la Motte,70000,VESOUL,70,D_70,Onlineformapro,,,03 84 76 52 44,,,O,APTIC
5.590222,47.447873,6 rue Gambetta,70100,GRAY,70,D_70,Onlineformapro,,,06 43 08 27 49,,,O,APTIC
6.364494,47.815603,2 rue Lacépède,70300,LUXEUIL LES BAINS,70,D_70,FabLab des 3 lapins,,atelier@fablab3lapins.org,07 69 80 19 48,,,F,APTIC
5.847020,47.420000,9 chemin des Ecoliers,70700,BUCEY-Lès-GY,70,D_70,Fablab des Monts de Gy,http://fablab-montsdegy.fr,fablab-montsdegy@gmail.com,07 82 52 94 98,,,F,APTIC
4.831782,46.304775,42 rue tourneloup  Centre d'affaires Tourneloup,71000,MÂCON,71,D_71,Mon Assistant Numérique Mâcon ( Nicolas Numérique SAS),,,06 42 30 28 63,,,O,APTIC
4.059696,46.599447,place de l'église (entrée quai de l'Europe),71130,GUEUGNON,71,D_71,Syntaxe erreur 2.0,,,03 85 84 22 76,,,F,APTIC
46.886500,5.260590,5 place de la Mairie,71270,PIERRE DE BRESSE,71,D_71,Association Tremplin,www.ateliertremplin.fr,ateliertremplin@yahoo.fr,03 85 76 26 70,,,F,APTIC-RIN
4.730697,46.197181,921 route du Moulin à Vent,71570,ROMANECHE-THORINS,71,D_71,SOLUTIONS INGÉNIERIE DIGITAL FORMATION (SID FORMATION),,,06 81 52 74 10,,,O,
5.030519,47.316035,11  rue de l'Hôpital,21000,DIJON,21,D_21,Accueil général de la ville et du CCAS de Dijon,,,,,,I,DM
5.073953,47.310202,Atheneum. Centre culturel universitaire,21000,DIJON,21,D_21,Atheneum. Centre culturel universitaire,,,,,,M,
5.041585,47.319187,7 rue de l'école de droit,21000,DIJON,21,D_21,Bibliothèque jeunesse,,,,,,M,DM
5.043503,47.321138,1 place du théâtre,21000,DIJON,21,D_21,Bibliothèque La Nef,,,,,,M,DM
5.047603,47.340637,21 rue Balzac,21000,DIJON,21,D_21,Bibliothèque Maladière,,,,,,M,DM
5.057337,47.307995,2 boulevard Mansart,21000,DIJON,21,D_21,Bibliothèque Mansart,,,,,,M,DM
5.043198,47.319228,3 rue de l'école de droit,21000,DIJON,21,D_21,Bibliothèque Patrimoniale et d'études,,,,,,M,DM
5.042764,47.325482,Rue Mère Javouhey,21000,DIJON,21,D_21,CCAS / Maison des seniors,,,,,,I,DM
5.056111,47.301346,26 rue du Commandant Abrioux,21000,DIJON,21,D_21,CCAS / Résidence Abrioux,,,,,,I,DM
5.030519,47.316035,11 rue de l'hôpital,21000,DIJON,21,D_21,CCAS / Service des interventions sociales,,,,,,I,DM
5.069047,47.329680,14  rue Camille Claudel,21000,DIJON,21,D_21,Centre multimédia des grésilles,,,,,,M,DM
5.063669,47.331768,3-5 rue Jean XXIII,21000,DIJON,21,D_21,Centre social des Grésilles,,,,,,I,DM
5.035282,47.326441,5  rue des fleurs,21000,DIJON,21,D_21,Cercle Laïque Dijonnais,,,,,,F,
5.049432,47.327347,eb-Lab Co-working,21000,DIJON,21,D_21,eb-Lab Co-working,,,,,,T,
5.042991,47.350616,27  avenue Charles Baudelaire,21000,DIJON,21,D_21,Espace Baudelaire,,,,,,F,DM
5.050782,47.328591,Espace Numérique Professionnel - CCI21,21000,DIJON,21,D_21,Espace Numérique Professionnel - CCI21,,,,,,M,
5.031579,47.315282,2  rue des Corroyeurs,21000,DIJON,21,D_21,Kelle Fabrik,https://kellefabrik.org/,kellefabrik@gmail.com,06 74 71 17 77,,,F,
5.068101,47.332724,33 place Galilée,21000,DIJON,21,D_21,La Coursive Boutaric,https://www.la-coursive.fr/,contact@la-coursive.fr,03 73 13 10 21,,,F,
5.008154,47.319111,2 allée de Grenoble,21000,DIJON,21,D_21,La Maison-Phare,,,,,,F,-DM
5.040214,47.323159,6  impasse Quentin,21000,DIJON,21,D_21,L'Abscisse,https://fablab.coagul.org/Accueil,,,,,F,
5.041164,47.301142,21  rue Maurice Ravel,21000,DIJON,21,D_21,Le Tempo,,,,,,F,
5.038086,47.322238,67 rue des Godrans,21000,DIJON,21,D_21,Le Village by CA Champagne-Bourgogne,https://www.levillagebyca.com/fr/node/14699,,,,,T,
5.078323,47.315035,64E  rue Sully,21000,DIJON,21,D_21,Les Docks Numériques,https://www.lesdocks.net/,contact@lesdocks.net,,,,T,
5.052016,47.350673,10 bis place Granville,21000,DIJON,21,D_21,Mairie de quartier Toison d'or,,,,,,M,DM
5.065462,47.331255,6 avenue des Grésilles,21000,DIJON,21,D_21,Mairie de quartier des Grésilles,,,,,,M,DM
5.003103,47.319288,13 place de la fontaine d'ouche,21000,DIJON,21,D_21,Mairie de quartier Fontaine d'Ouche,,,,,,M,DM
5.057337,47.307995,2 boulevard Mansart,21000,DIJON,21,D_21,Mairie de quartier Mansart,,,,,,M,DM
5.069047,47.329680,14 rue Camille Claudel,21000,DIJON,21,D_21,Médiathèque Champollion,,,,,,M,DM
5.024485,47.314058,Place des Mariniers,21000,DIJON,21,D_21,Médiathèque Port du canal,,,,,,M,DM
5.037009,47.324066,8 rue du Temple,21000,DIJON,21,D_21,Mission Locale de l'arrondissement de Dijon,mldijon.asso.fr,miloarrondissementdijon@milobfc.fr,03 80 44 91 44,,,I,
5.047603,47.340637,21-25 rue Balzac,21000,DIJON,21,D_21,MJC-Centre social Balzac-Maladière,,,,,,F-I,DM
5.015599,47.308963,31 boulevard Eugène Fyot,21000,DIJON,21,D_21,MJC-Centre social des Bourroches,,,,,,F-I,DM
5.037763,47.331512,1 ter rue de Beaune,21000,DIJON,21,D_21,MJC-Centre social Montchapet,,,,,,F-I,DM
5.031579,47.315282,2  rue des Corroyeurs,21000,DIJON,21,D_21,PANDA 1er mai,,,,,,M,DM
5.015599,47.308963,31 boulevard Eugène Fyot,21000,DIJON,21,D_21,PANDA Bourroches,,,,,,M,DM
5.039781,47.308806,6  rue Joseph Milsand,21000,DIJON,21,D_21,PANDA Chevreul,,,,,,M,DM
5.008154,47.319111,2 allée de Grenoble,21000,DIJON,21,D_21,PANDA Fontaine d'Ouche,,,,,,M,DM
5.025971,47.320367,14 rue Jehan de Marville,21000,DIJON,21,D_21,PANDA Jardin des Sciences,,,,,,M,DM
5.008154,47.319111,2  allée de Grenoble,21000,DIJON,21,D_21,PANDA Lab - Maison Phare MJC,https://lamaisonphare.fr/,contact@lamaisonphare.fr,03 80 45 45 26,,,M-F,DM
5.042991,47.350616,25 avenue Charles Baudelaire,21000,DIJON,21,D_21,PANDA Lab Baudelaire,,,,,,M-F,DM
5.032554,47.333696,2H  rue Darius Milhaud,21000,DIJON,21,D_21,PANDA Montchapet,,,,,,M,DM
5.068201,47.312553,Avenue Alain Savary,21000,DIJON,21,D_21,PANDA Université,,,,,,M,DM
5.036812,47.322066,7bis  rue du Chapeau Rouge,21000,DIJON,21,D_21,Quatre Quarts,https://quatrequarts.fr/,contact@quatrequarts.fr,03 80 30 98 47,,,T,
5.036269,47.324365,15 boulevard de Brosse,21000,DIJON,21,D_21,Startway Dijon,https://www.start-way.com/project/coworking-dijon-centre/,hello@start-way.com,07 49 35 29 47,,,T,
5.145546,47.255535,bibliothèque municipale,21110,FAUVERNEY,21,D_21,bibliothèque municipale,,,,,,M,
5.219921,47.243470,Espace Coluche. Service Enfance Jeunesse,21110,GENLIS,21,D_21,Espace Coluche. Service Enfance Jeunesse,,,,,,M,
5.171291,47.274087,Point Internet Fauverney,21110,FAUVERNEY,21,D_21,Point Internet Fauverney,,,,,,M,
5.115722,47.522443,1 avenue Carnot,21120,IS-SUR-TILLE,21,D_21,Espace Numérique Côte-d'Or d'Is-sur-Tille,,,07 72 55 21 16,,,M,
5.112966,47.521601,20 place du Général Leclerc,21120,IS-SUR-TILLE,21,D_21,MSAP Is-sur-Tille,,msap.issurtille@hotmail.com,,,,I,-MSAP-MFS
5.025536,47.339232,5  rue des ponnières,21121,FONTAINE-LES-DIJON,21,D_21,Atelier D’calés,https://atelier-d-cales.jimdofree.com/,atelier.d.cales@gmail.com,06 63 29 37 49,,,F,
5.388193,47.193029,2 rue de la paix,21130,AUXONNE,21,D_21,Espace Numérique Côte-d'Or d'Auxonne,,,03 80 31 58 32,,,M,
4.327967,47.524822,Ancien château de Chevigny,21140,MILLERY,21,D_21,COCwork,http://www.cocwork.wordpress.com,cocwork@tuta.io,07 67 65 76 00,,,T,
4.346018,47.493786,1 avenue Pasteur,21140,SEMUR-EN-AUXOIS,21,D_21,Espace Numérique Côte-d'Or de Semur-en-Auxois,,,03 80 97 09 27,,,M,
4.335442,47.495082,43  rue de Vignes,21140,SEMUR-EN-AUXOIS,21,D_21,Lab'Aux,https://www.labaux.org/,,06 95 51 92 52,,,F,
4.332323,47.493069,Maison familiale rurale,21140,SEMUR EN AUXOIS,21,D_21,Maison familiale rurale,,,,,,F-O,
4.346018,47.493786,1  avenue Pasteur,21140,SEMUR-EN-AUXOIS,21,D_21,MSAP Semur-en-Auxois,,efs.semur@gmail.com,,,,I,-MSAP-MFS
4.461108,47.540038,Avenue de Dijon,21150,VENAREY-LES-LAUMES,21,D_21,Espace Numérique Côte-d'Or de Venarey-les-Laumes,,,03 80 96 11 56,,,M,
4.447884,47.542374,18 avenue Jean-Jaurès,21150,VENAREY-LES-LAUMES,21,D_21,MSAP du Pays d'Alésia et de la Seine,,,,,,I,-MSAP
5.001884,47.281478,18 avenue Gaston Roupnel,21160,MARSANNAY LA COTE,21,D_21,adamm,,,,,,F,
5.002586,47.278383,Place Schweich,21160,MARSANNAY LA COTE,21,D_21,Bibliothèque de Marsannay-la-Côte,,espace-multimedia@mairie-marsannaylacote.fr,03 80 59 64 72,,,M,
4.979111,47.260689,Espace multimédia de Couchey,21160,COUCHEY,21,D_21,Espace multimédia de Couchey,,,,,,M,
4.830892,47.025661,8 avenue du Parc,21200,BEAUNE,21,D_21,Espace Numérique Côte-d'Or de Beaune,,,03 80 24 79 95,,,M,
4.835216,47.023306,8 rue du Collège,21200,BEAUNE,21,D_21,FabLab Beaune,http://fablab-beaune.com/,,07 86 11 01 91,,,F,
4.834442,47.031842,6 bis avenue Guigone de Salins,21200,BEAUNE,21,D_21,Mission Locale rurale de Beaune,missionlocalebeaune.fr,milobeaune@milobfc.fr,03 80 24 93 65,,,I,
4.229661,47.278252,Centre Numérique de la Communauté de communes de Saulieu,21210,SAULIEU,21,D_21,Centre Numérique de la Communauté de communes de Saulieu,,,,,,M,
4.229661,47.278252,5 rue de la Tour des Fossés,21210,SAULIEU,21,D_21,Espace Numérique Côte-d'Or de Saulieu,,,03 80 64 31 96,,,M,
4.229661,47.278252,5  rue tour des Fossés,21210,SAULIEU,21,D_21,MSAP Saulieu,,msapsaulieu@gmail.com,,,,I,-MSAP
4.992062,47.227698,8 avenue Nierstein,21220,GEVREY-CHAMBERTIN,21,D_21,Espace Numérique Côte-d'Or de Gevrey-Chambertin,,,03 80 51 81 11,,,M,
4.491110,47.130870,3 rue de la Gare,21230,ARNAY LE DUC,21,D_21,MFS Arnay-le-Duc - Espace Numérique Côte d'Or,,msap@csarnayleduc.fr,03 80 90 90 59,,,M-I,-MSAP-MFS
4.996527,47.339344,Bibliothèque multimédia Henri Vincenot,21240,TALANT,21,D_21,Bibliothèque multimédia Henri Vincenot,,,,,,M,
5.146558,46.999952,22 Rue de la République,21250,SEURRE,21,D_21,MSAP Seurre,,msap.seurre@laposte.fr,,,,I,-MSAP
5.184421,47.584827,,21260,SELONGEY,21,D_21,Atelier culinaire du Groupe SEB,,,,,,F,
5.408484,47.314203,1 rue des Saucis,21270,PONTAILLER-SUR-SAÖNE,21,D_21,MFS Pontailler sur Saône - Espace public numérique,,mds@capvaldesaone.fr,03 80 47 89 82,,,I,-MSAP-MFS
4.792410,47.814400,Ruelle de la Ferme,21290,LEUGLAY,21,D_21,Espace Numérique Côte-d'Or de Leuglay,,,03 80 81 87 19,,,M,
4.862747,47.780251,Place de Silenrieux,21290,RECEY-SUR-OURCE,21,D_21,MSAP Recey-sur-Ource,,,,,,I,-MSAP
5.011615,47.298943,EPN L@ Boussole,21300,CHENOVE,21,D_21,EPN L@ Boussole,,,,,,M,
5.315179,47.397308,6bis  place du Général Viard,21310,MIREBEAU-SUR-BEZE,21,D_21,MFS Mirebeau-sur-Bèze,,d.colnot@mfcc.fr,03 80 38 02 48,,,I,-MFS
4.557690,47.262363,Espace Jean-Claude Patriarche,21320,POUILLY-EN-AUXOIS,21,D_21,MSAP Pouilly-en-Auxois,,msap.cspouilly@gmail.com,,,,I,-MSAP
4.364692,47.843002,Place Victor Gat,21330,LAIGNES,21,D_21,Espace Numérique Côte-d'Or de Laignes,,,03 80 81 28 68,,,M,
4.630319,46.951154,1 Place de l'Hôtel de Ville,21340,NOLAY,21,D_21,MSAP Nolay,,msap.nolay@laposte.fr,,,,I,-MSAP
4.539572,47.398841,19 rue de l'Hôtel de Ville,21350,VITTEAUX,21,D_21,Espace Numérique Côte-d'Or de Vitteaux,,,03 80 51 38 97,,,M,
4.664591,47.107867,4 allée des Cordiers,21360,BLIGNY-SUR-OUCHE,21,D_21,MSAP Espace Numérique Côte-d'Or de Bligny-sur-Ouche,,contact@ccpouillybligny.fr,03 80 20 16 73,,,I,-MSAP
5.052385,47.430357,Espace Savinus,21380,SAVIGNY LE SEC,21,D_21,Espace Savinus,,,,,,F,
4.306252,47.388744,6 rue du Serein,21390,PRECY-SOUS-THIL,21,D_21,Espace Numérique Côte-d'Or de Précy-sous-Thil,,,03 80 64 71 85,,,M,
4.574894,47.863831,14bis rue de la Libération,21400,CHÂTILLON-SUR-SEINE,21,D_21,Espace Numérique Côte-d'Or de Châtillon-sur-Seine,,,03 80 81 28 68,,,M,
4.574407,47.858829,1 rue Ernest Humblot,21400,CHÂTILLON-SUR-SEINE,21,D_21,Mission Locale des Marches de Bourgogne - Arrondissement de Montbard,missionlocalemarchesdebourgogne.com,milomarchesdebourgogne@milobfc.fr,03 80 91 36 42,,,I,
4.575485,47.850467,11 rue Albert Camus,21400,CHÂTILLON-SUR-SEINE,21,D_21,MSAP Pays Châtillonnais,,msap@cscl-chatillonnais.fr,,,,I,-MSAP
4.859336,47.311605,1 Rue du Sophora,21410,FLEUREY-SUR-OUCHE,21,D_21,MSAP Fleurey-sur-Ouche,,msap.fleurey-sur-ouche@laposte.fr,,,,I,-MSAP
4.818482,47.063490,1  rue des Cigales,21420,SAVIGNY-LES-BEAUNE,21,D_21,FabLab des Vignes,,fablab.vignes@gmail.com,,,,F,
4.281320,47.204873,Maison Familiale Rurale Le Dueg,21430,LIERNAIS,21,D_21,Maison Familiale Rurale Le Dueg,,,,,,F-O,
4.788624,47.439951,Rue Sonnois,21440,SAINT-SEINE-L'ABBAYE,21,D_21,Espace Numérique Côte-d'Or de Saint-Seine-l'Abbaye,,,03 80 35 06 12,,,M,
4.647634,47.600626,Rue de Quemigny,21450,BAIGNEAUX-LES-JUIFS,21,D_21,Espace Numérique Côte-d'Or de Baigneux-les-Juifs,,,06 25 34 31 57,,,M,
5.062149,47.284881,Allée de la mairie,21600,LONGVIC,21,D_21,Maison Jules Verne,,,03 80 68 45 70,,,F-I,
4.975178,47.127476,Maison Familiale Rurale d'Agencourt,21700,AGENCOURT,21,D_21,Maison Familiale Rurale d'Agencourt,,,,,,F-O,
5.117356,47.315073,Maison Familiale Rurale de Quétigny,21800,QUETIGNY,21,D_21,Maison Familiale Rurale de Quétigny,,,,,,F-O,
5.143954,47.302475,Point Information Jeunesse - EPN Centre Pierre Perret,21800,CHEVIGNY ST SAUVEUR,21,D_21,Point Information Jeunesse - EPN Centre Pierre Perret,,,,,,M-I,
6.039700,47.231000,8 avenue du Chardonnet,25000,BESANCON,25,D_25,3615 Señor,http://3615senor.org,contact@3615senior.org,,,,F,
6.020770,47.242100,52 rue Battant,25000,BESANCON,25,D_25,52 Battant,http://www.52battant.fr,contact@52battant.fr,09 72 61 82 74,,,F,
5.995690,47.227100,,25000,BESANCON,25,D_25,CRIJ Franche-Comté,,,,,,I,
5.999700,47.261100,,25000,BESANCON,25,D_25,EPN Battant,,,,,,M,
5.995690,47.227100,27  rue de la République,25000,BESANCON,25,D_25,EPN Centre ville,,,,,,M,
6.053510,47.249400,,25000,BESANCON,25,D_25,EPN Clairs-soleils,,,,,,M,
6.054520,47.254700,,25000,BESANCON,25,D_25,EPN Grette,,,,,,M,
6.000240,47.247300,1  place de Coubertin,25000,BESANCON,25,D_25,EPN Montrapon,,,,,,M,
5.967440,47.221300,13  avenue Ile de France,25000,BESANCON,25,D_25,EPN Planoise,,,,,,M,
5.966260,47.220600,19 rue de la République,25000,BESANCON,25,D_25,Espace IO,https://espaces.io/,info@espaces.io,03 39 25 03 39,,,F,
5.973590,47.218500,10  rue Picasso,25000,BESANCON,25,D_25,FabLab Planoise,http://epn.besancon.fr/?location=fablab-planoise,fablab@grandbesancon.fr,03 81 87 84 27,,,F,
6.007500,47.242000,17  rue Xavier Marmier,25000,BESANCON,25,D_25,Frenchmakers,http://fablabbesancon.frenchmakers.com/#!/,contact@frenchmakers.com,03 81 63 18 32,,,F,
5.949900,47.211000,4 rue Eugène Savoye,25000,BESANCON,25,D_25,iBureau Bisontin,http://www.ibureaubisontin.com,contact@ibureaubisontin.com,06 87 47 25 73,,,T,
6.007140,47.241900,La Pépinière APEFC,25000,BESANCON,25,D_25,La Pépinière APEFC,,,,,,T,
5.976900,47.220900,12 rue de France-Comté,25000,BESANCON,25,D_25,L'atome,https://besancon-coworking.fr/,contact@besancon-coworking.fr,03 81 26 18 89,,,F,
5.973660,47.219300,7-9 rue Picasso,25000,BESANCON,25,D_25,MFS Planoise,,msap@besancon.fr,03 81 41 22 21,,,I,-MSAP-MFS
6.017940,47.245700,10C rue Midol,25000,BESANCON,25,D_25,Mission Locale du Bassin d'Emploi de Besançon,missionlocale-besancon.fr,milobassindemploibesancon@milobfc.fr,03 81 85 85 85,,,I,
6.361392,47.351713,Horizon Jeunes,25110,BAUME LES DAMES,25,D_25,Horizon Jeunes,,,,,,I,
6.361560,47.352575,3 Place de la République,25110,BAUME LES DAMES,25,D_25,MFS Doubs Baumois,,msap@baumelesdames.org,,,,I,-MSAP
6.361227,47.352628,2 B place du Général de Gaulle,25110,BAUME LES DAMES,25,D_25,MSAP Objectif Emploi Baume-les-Dames,,baumelesdames@msapobjectifemploi.org,,,,I,-MSAP
5.931970,47.256200,Rue Emagny,25115,POUILLEY LES VIGNES,25,D_25,Agence Crédit Agricole Pouilley les Vignes,https://www.ca-franchecomte.fr,pouilley.les.vignes@ca-franchecomte.fr,03 81 55 04 76,,,F-I,
6.669811,47.060345,MJC de Villers-le-Lac,25130,VILLERS LE LAC,25,D_25,MJC de Villers-le-Lac,,,,,,I,
6.770036,47.382306,21 rue de Besancon,25150,PONT DE ROIDE,25,D_25,Agence Crédit Agricole Pont de Roide,https://www.ca-franchecomte.fr,pontderoide@ca-franchecomte.fr,03 81 99 87 40,,,F-I,
6.812826,47.317628,Esplanade des Fêtes,25190,SAINT-HIPPOLYTE,25,D_25,MSAP Saint-Hippolyte,,msap.saint-hippolyte@laposte.fr,,,,I,-MSAP
6.813326,47.317911,,25190,SAINT HIPPOLYTE,25,D_25,Point multimédia de Saint Hippolyte,,,,,,I,
6.800682,47.510810,,25200,MONTBELIARD,25,D_25,Bureau Information Jeunesse de Montbéliard,,,,,,I,
6.804307,47.532991,Centre social et culturel de Bethoncourt,25200,BETHONCOURT,25,D_25,Centre social et culturel de Bethoncourt,,,,,,I,
6.811344,47.518686,,25200,MONTBELIARD,25,D_25,Cyberespace Léo Lagrange,,,,,,M,
6.800682,47.510810,,25200,MONTBELIARD,25,D_25,Espace Netpublic,,,,,,M,
6.811793,47.536962,Espace Relais du CSC,25200,BETHONCOURT,25,D_25,Espace Relais du CSC,,,,,,M,
6.800682,47.510810,2 avenue des alliés,25200,MONTBELIARD,25,D_25,IDEIS - Mission Locale du Pays de Monbéliard,ideis-asso.fr,contact@ideis-asso.fr,03 81 71 04 00,,,I,
6.794360,47.504871,1 impasse de la presqu'ile,25200,MONTBELIARD,25,D_25,L'Atelier du pavillon des sciences,http://www.pavillon-sciences.com,,03 81 97 18 21,,,F-I-F,
6.798311,47.499355,12 rue Maurice Ravel,25200,MONTBELIARD,25,D_25,MFS Montbéliard Petite Hollande,,msapmontbeliard@outlook.fr,,,,I,-MSAP-MFS
6.826627,47.526409,Point Information Jeunesse / PIFE,25200,GRAND CHARMONT,25,D_25,Point Information Jeunesse / PIFE,,,,,,I,
6.863480,47.460281,Centre Culturel la Stauberie,25230,SELONCOURT,25,D_25,Centre Culturel la Stauberie,,,,,,M,
6.895194,47.477867,,25230,DASLE,25,D_25,Ecole primaire de Dasle,,,,,,M,
6.860526,47.461841,Maison pour tous,25230,SELONCOURT,25,D_25,Maison pour tous,,,,,,I,
6.192658,46.710385,1 Grande Rue,25240,MOUTHE,25,D_25,MSAP Mouthe,,msap.mouthe@laposte.fr,,,,I,-MSAP
6.578250,47.450586,16 Rue de la Velle,25250,L'ISLE-SUR-LE-DOUBS,25,D_25,MSAP Objectif Emploi L'Isle sur le Doubs,,lislesurledoubs@msapobjectifemploi.org,,,,I,-MSAP
6.118140,46.953824,11  place de Verdun,25270,LEVIER,25,D_25,Agence crédit agricole Levier,https://www.ca-franchecomte.fr,levier@ca-franchecomte.fr,03 81 49 50 86,,,F-I,
6.147346,47.105057,1 rue Saint Laurent,25290,ORNANS,25,D_25,Agence Credit Agricole Ornans,https://www.ca-franchecomte.fr,ornans@ca-franchecomte.fr,03 81 62 14 52,,,F-I,
6.354076,46.905997,17 place des Bernardines,25300,PONTARLIER,25,D_25,Mission Locale du Haut-Doubs,,milohautdoubs@milobfc.fr,03 81 46 54 61,,,I,
6.883728,47.442506,Espace Multimedia,25310,HERIMONCOURT,25,D_25,Espace Multimedia,,,,,,M,
5.999905,46.977518,6 grande rue,25330,NANS SOUS STE ANNE,25,D_25,L 'Observ@toire - Association ECHEL,,,,,,F,
6.070628,47.037643,13 rue du Four,25330,AMANCEY,25,D_25,MFS Communauté de Communes Loue Lison,,contact@msap-amancey.fr,03 81 86 79 80,,,I,-MSAP-MFS
6.497182,47.393480,Place de l'Hôtel de Ville,25340,CLERVAL,25,D_25,MSAP Objectif Emploi Clerval,,clervalsancey@msapobjectifemploi.org,,,,I,-MSAP
6.807205,47.452945,Espace jeune,25350,MANDEURE,25,D_25,Espace jeune,,,,,,I,
6.236533,47.246334,1 Place de la Poste,25360,BOUCLANS,25,D_25,MSAP Objectif Emploi Bouclans,,bouclansroulans@msapobjectifemploi.org,,,,I,-MSAP
6.373972,46.777020,7  place de la mairie,25370,LES HOPITAUX NEUFS,25,D_25,Agence crédit agricole les hopitaux neufs,https://www.ca-franchecomte.fr,les.hopitaux.neufs@ca-franchecomte.fr,03 81 49 13 44,,,F-I,
6.656181,47.259570,1 Allée des Sapins,25380,BELLEHERBE,25,D_25,MSAP Communauté de communes du Pays de Sancey Belleherbe,,cc.dessoubre.barbeche@wanadoo.fr,,,,I,-MSAP
6.526425,47.131422,29 Grande rue,25390,ORCHAMPS-VENNES,25,D_25,MSAP Orchamps-Vennes,,msap.orchamps-vennes@laposte.fr,,,,I,-MSAP
6.840732,47.479594,2 rue de seloncourt,25400,AUDINCOURT,25,D_25,Agence Crédit Agrricole Audincourt,https://www.ca-franchecomte.fr,audincourt@ca-franchecomte.fr,03 81 30 00 67,,,F-I,
6.857147,47.473836,Espace citoyen,25400,AUDINCOURT,25,D_25,Espace citoyen,,,,,,I-F,
5.810720,47.180500,Association Saint-Vit Informatique,25410,SAINT VIT,25,D_25,Association Saint-Vit Informatique,,,,,,F,
6.585854,47.298151,30 bis Rue du Maréchal de lattre de Tassigny,25430,SANCEY-LE-GRAND,25,D_25,MSAP Objectif Emploi Sancey,,clervalsancey@msapobjectifemploidc.org,,,,I,-MSAP
5.883626,47.103238,15 Place d'Armes,25440,QUINGEY,25,D_25,MSAP Quingey,,rspquingey@gmail.com,,,,I,-MSAP
6.896718,47.524083,Maison des associations,25490,FESCHES LE CHATEL,25,D_25,Maison des associations,,,,,,F-I,
6.731509,47.479615,4 grande rue,25550,BAVANS,25,D_25,Agence Crédit Agricole Bavans,https://www.ca-franchecomte.fr,bavans@ca-franchecomte.fr,03 81 96 26 69,,,F-I,
6.736854,47.480477,Association de Gestion - Maison pour tous,25550,BAVANS,25,D_25,Association de Gestion - Maison pour tous,,,,,,F,
6.165342,46.858267,26 grande rue,25560,FRASNE,25,D_25,Agence Credit Agricole Frasne,https://www.ca-franchecomte.fr,frasne@ca-franchecomte.fr,03 81 49 81 21,,,F-I,
6.158342,46.857464,18 rue de la gare,25560,FRASNE,25,D_25,MSAP Frasne,,msap.frasne@laposte.fr,,,,I,-MSAP
6.336511,47.098570,8 rue de la Scierie,25580,LES PREMIERS SAPINS,25,D_25,MFS Les Premiers Sapins,,mairie.lps25@orange.fr,,,,I,-MSAP-MFS
6.837238,47.525316,Ecole primaire,25600,VIEUX CHARMONT,25,D_25,Ecole primaire,,,,,,M,
6.830879,47.513896,4  rue de La Poste,25600,SOCHAUX,25,D_25,MFS Maison Numérique de Sochaux,,msapsochaux@outlook.fr,,,,I,-MSAP-MFS
6.831091,47.513420,Pôle Multimédia,25600,SOCHAUX,25,D_25,Pôle Multimédia,,,,,,M,
5.779030,47.031451,Institut Claude Nicolas Ledoux. C.C.R.,25610,ARC ET SENANS,25,D_25,Institut Claude Nicolas Ledoux. C.C.R.,,,,,,O,
6.161630,47.197200,17 Grande Rue,25620,MAMIROLLE,25,D_25,MSAP Mamirolle,,msap.mamirolle@laposte.fr,,,,I,-MSAP
6.774880,47.506512,Club Miss,25630,SAINTE SUZANNE,25,D_25,Club Miss,,,,,,F,
6.238387,47.316352,Espace Culturel,25640,ROULANS,25,D_25,MSAP Objectif Emploi Roulans,,baumelesdames@msapobjectifemploi.org,,,,I,-MSAP
6.480759,47.046730,4 rue de lattre de tassigny,25650,GILLEY,25,D_25,Agence Credit Agricole Gilley,https://www.ca-franchecomte.fr,gilley@ca-franchecomte.fr,03 81 43 30 04,,,F-I,
6.483597,47.046697,2 Avenue Jean de Lattre de Tassigny,25650,GILLEY,25,D_25,MSAP Gilley,,msap.gilley@laposte.net,,,,I,-MSAP
6.117840,47.224100,1 rue de la croix de mission,25660,SAONE,25,D_25,Agence Crédit Agricole Saone,https://www.ca-franchecomte.fr,saone@ca-franchecomte.fr,03 81 55 71 25,,,F-I,
6.117840,47.224100,1 rue de la croix de mission,25660,SAONE,25,D_25,Agence Crédit Agricole Saone,https://www.ca-franchecomte.fr,saone@ca-franchecomte.fr,03 81 55 71 25,,,F-I,
6.378162,47.480117,Zone d'activités du Pré Rond,25680,CUSE-ET-ADRISANS,25,D_25,MSAP Objectif Emploi Rougemont,,rougemont@msapobjectifemploi.org,,,,I,-MSAP
6.782497,47.437388,Ecole primaire,25700,MATHAY,25,D_25,Ecole primaire,,,,,,I,
6.836789,47.462367,Maison des Jeunes et de la Culture,25700,VALENTIGNEY,25,D_25,Maison des Jeunes et de la Culture,,,,,,F,
6.658207,47.521728,29 rue de la 5ème Division Blindée,25750,ARCEY,25,D_25,MSAP Arcey (Bureau de Poste),,msap.arcey@laposte.fr,,,,I,-MSAP
6.345019,47.147983,5 Place du Général de Gaulle,25800,VALDAHON,25,D_25,MFS Maison des Services de Valdahon,,mds@valdahon.com,03 81 26 04 10,,,I,-MSAP-MFS
6.011316,47.327646,4A route de Bonnay,25870,DEVECEY,25,D_25,Agence Crédit Agricole Devecey,https://www.ca-franchecomte.fr,devecey@ca-franchecomte.fr,03 81 56 84 33,,,F-I,
6.012000,47.327200,,25870,BONNAY,25,D_25,EPN Intercommunal de la dame blanche,,,,,,M,
5.559639,46.674247,19  Place de Verdun,39000,LONS LE SAUNIER,39,D_39,ANPE Lons le Saunier,http://anpe.fr/,maison.commune@ville-lons-le-saunier.fr,03 84 47 15 67,,,I,
5.571603,46.677955,1000  rue des Gentianes,39000,LONS LE SAUNIER,39,D_39,espace Cyber-base emploi Lons le Saunier,http://lons-le-saunier.cyber-base.org/,contact@mde-lons-champagnole.fr,03 84 44 19 10,,,M,
5.554027,46.676099,17 Place Perraud,39000,LONS LE SAUNIER,39,D_39,Info Jeunesse Jura,http://ijlonslesaunier.jeunes-fc.com/,web39@jeunes-fc.com,03 84 87 02 55,,,I,
5.553933,46.668589,2 rue de Montaigu,39000,LONS LE SAUNIER,39,D_39,Lédanova,https://www.facebook.com/ledonova/,,06 78 96 08 57,,,F,
5.571603,46.677955,1000 rue des Gentianes,39000,LONS LE SAUNIER,39,D_39,Mission Locale Sud Jura,missionlocalesudjura.org,milosudjura@milobfc.fr,03 84 87 02 56,,,I,
5.498227,47.084708,31 rue Julien Feuvrier,39100,DOLE,39,D_39,Le V  Fourmilière des Savoir-Faire,http://www.projet-v.fr,bonjour@projet-v.fr,06 67 63 05 62,,,F,
5.466198,47.071416,24 place nationale,39100,DOLE,39,D_39,Mission Locale Dole-Revermont,missionlocale-dolerevermont.fr,milodolerevermont@milobfc.fr,03 84 72 53 18,,,I,
5.861152,46.952380,Zone Artisanale Les Mélincols,39110,SALINS-LES-BAINS,39,D_39,MFS Salins-les-Bains,,msap.ps@agate-paysages.fr,,,,M,-MSAP-MFS
5.407953,46.968329,3 place du collège,39120,CHAUSSIN,39,D_39,MSAP de la Plaine Jurassienne,,msap.plainejurassienne@agate-paysages.fr,,,,M,-MSAP
5.453529,46.744635,3 Place Orion,39140,BLETTERANS,39,D_39,MSAP Bletterans,,msap.bletterans@laposte.fr,,,,M,-MSAP
5.461255,46.748906,12 place de la gare,39140,BLETTERANS,39,D_39,Point Information Jeunesse Bletterans,http://www.jeunes-fc.com/,espacejeunes.bletterans@ejfc.com,03 84 44 45 09,,,I,
5.342488,46.437660,4 Avenue Lucien Febvre,39160,SAINT AMOUR,39,D_39,EPN Médiathèque du Pays de St-Amour,,bibliotheque-stamour@wanadoo.fr,03 84 44 05 61,,,M,
5.803057,46.424006,1 grande rue,39170,RAVILLOLES,39,D_39,Atelier des Savoir-Faire,http://www.atelierdessavoirfaire.fr/,,03 84 42 65 06,,,F,
5.438472,46.573164,10 Grande Rue,39190,BEAUFORT,39,D_39,MFS Porte du Jura,,msap@ccportedujura.fr,03 84 48 96 67,,,M,-MSAP-MFS
5.861259,46.401015,19 rue du marché,39200,SAINT CLAUDE,39,D_39,Bureau Information Jeunesse St Claude,http://www.jeunes-fc.com/,saint-claude@jeunes-fc.com,03 84 45 27 27,,,I,
5.868137,46.383615,rue Tomachon,39200,SAINT CLAUDE,39,D_39,Cyber Espace du Haut-Jura,http://www.cbe-haut-jura.com/,animateur-epn@cite-haut-jura.fr,03 84 45 41 71,,,M,
6.136538,46.537883,194 rue des Couenneaux,39220,BOIS D'AMONT,39,D_39,MSAP Bois-d'Amont,,msap.bois-d-amont@laposte.fr,,,,I,-MSAP
5.566614,46.827911,Rue Jean Moulin,39230,SELLIERES,39,D_39,MSAP Sellières,,msap.sellieres@laposte.fr,,,,I,-MSAP
5.566873,46.392864,3  place de la Charité,39240,ARINTHOD,39,D_39,MFS Petite Montagne,,msap@petitemontagne.fr,03 84 48 75 86,,,I,-MSAP-MFS
5.611445,46.521711,4 rue de l'église,39270,ORGELET,39,D_39,La Fabrik,http://lafabrik-jura.fr,lafabrik@adapemont.fr,03 84 85 47 91,,,F,
5.611852,46.520481,4 chemin du quart,39270,ORGELET,39,D_39,MSAP de la Région d'Orgelet,,maison.services@ccorgelet.com,,,,I,-MSAP
5.456000,47.145657,3 rue de l'église,39290,BIARNE,39,D_39,FabLab-Net-IKi,http://www.fablab-net-iki.org,fablab.netiki@gmail.com,06 60 32 43 86,,,F,
5.912854,46.744318,place de l'amitié,39300,CHAMPAGNOLE,39,D_39,Point Information Jeunesse Champagnole,http://www.jeunes-fc.com/,ij-champagnole@wanadoo.fr,03 84 52 20 55,,,I,
5.683581,47.205195,9 rue Richebourg,39350,GENDREY,39,D_39,Médiathèque Jura-Nord,,biblio1@fc-net.fr,03 84 81 08 88,,,M,
5.704770,46.990905,11 rue des Enclos,39380,CHAMBLAY,39,D_39,Facto Habilis,,,,,,F,
5.668356,46.994091,11 route de Salins,39380,OUNANS,39,D_39,MFS Val d'amour,,msap.valdamour@agate-paysages.fr,,,,I,-MSAP-MFS
6.020593,46.522651,8 rue de l'industrie,39400,MOREZ,39,D_39,La Co-Workerie,https://www.facebook.com/La-Co-Workerie-2280130755563839/,co.workerie@gmail.com,03 63 68 67 95,,,T,
5.934819,46.462631,51 grande rue,39400,LONGCHAUMOIS,39,D_39,Médiathèque intercommunale Arcade,http://morez.cyber-base.org/,vmarcuard@cyber-base.org,03 84 60 64 93,,,M,
6.025381,46.527450,23 avenue de la Libération,39400,MOREZ,39,D_39,MSAP Morez,,accueil@msap.mairie-morez.fr,,,,I,-MSAP
6.021657,46.520987,10 quai Jobez,39400,MOREZ,39,D_39,Point Information Jeunesse Morez,http://www.jeunes-fc.com/,mia.pij@orange.fr,03 84 33 40 61,,,I,
5.770230,46.905441,35  rue de Courcelles,39600,ARBOIS,39,D_39,Eco Logik Art,https://www.facebook.com/pg/Ecologikart,ecologikart@free.fr,,,,F,
5.772358,46.902668,10 Rue de l'Hôtel de ville,39600,ARBOIS,39,D_39,MFS Arbois,,msap.arbois@agate-paysages.fr,,,,I,-MSAP-MFS
5.657127,47.147111,6 Rue Neuve,39700,ORCHAMPS,39,D_39,MSAP Orchamps,,msap.orchamps@laposte.fr,,,,I,-MSAP
5.708680,46.835902,57 grande rue,39800,POLIGNY,39,D_39,Couveuse Objectif Création,,objectif.creation@aldess.org,03 63 57 40 46,,,T,
5.708425,46.834197,20 place des déportés,39800,POLIGNY,39,D_39,Point Information Jeunesse de Poligny,http://www.ij39.com/,poligny@ij39.com,03 84 37 24 21,,,I,
3.186744,46.983958,Rue Louis-Francis,58000,NEVERS,58,D_58,Acteurs solidaires en marche,,,03 86 23 91 65,,,F,NMM
3.163685,46.991503,27B Rue Saint Etienne,58000,NEVERS,58,D_58,Association Nevers Libre,https://nevers-libre.org,,06 29 61 80 06,,,F,NMM
3.182181,46.987077,5 Allée de la Louée,58000,NEVERS,58,D_58,Bureau Information Jeunesse de la Nièvre,,,03 45 52 50 12,,,I,NMM
3.156926,46.998945,83 Rue des Chauvettes,58000,NEVERS,58,D_58,CAF de Nevers,,,,,,I,NMM
3.158352,46.986867,5 Rue de la Basilique,58000,NEVERS,58,D_58,CCAS de Nevers,,,03 86 71 80 00,,,I,NMM
3.132797,46.987892,19 rue Camille-Baynac,58000,NEVERS,58,D_58,Centre des finances publiques de Nevers,,,03 86 68 49 49,,,I,NMM
3.156862,46.985739,15 Rue Albert-Morlon,58000,NEVERS,58,D_58,Club Léo Lagrange,,,03 86 36 03 25,,,F,NMM
3.156936,46.994691,50 Rue Paul Vaillant Couturier,58000,NEVERS,58,D_58,CPAM Nevers,,,,,,I,NMM
3.159287,46.989411,,58000,NEVERS,58,D_58,ilab Nièvre Numérique,,,,,,I-F,
3.189340,46.980418,Kiosque numérique de Nevers,58000,NEVERS,58,D_58,Kiosque numérique de Nevers,,,,,,M,
3.128253,46.986118,5 Rue de la Louée,58000,NEVERS,58,D_58,La Boussole MILO,,,03 86 71 64 50,,,I,NMM
3.186523,46.983703,1 Rue de la Passière,58000,NEVERS,58,D_58,Le Prado Association Pagode,,,03 86 93 01 30,,,F,NMM
3.145417,46.992214,rue du 13e de ligne,58000,NEVERS,58,D_58,L'Inkub,http://www.linkub.fr,web_linkub@linkub.fr,03 86 61 81 60,,,F,
3.168047,46.994964,17 rue Jean Jaurès,58000,NEVERS,58,D_58,Médiathèque Jean Jaurès,http://mediatheque-agglo.nevers.fr/,,03 86 68 48 50,,,M,NMM
3.182181,46.987077,5 allée de la Louée,58000,NEVERS,58,D_58,Mission Locale de Nevers - Sud Nivernais,missionlocale-nevers.fr,miloneverssudnivernais@milobfc.fr,03 86 71 64 50,,,I,
3.174960,46.994246,40 Rue de la Préfecture,58000,NEVERS,58,D_58,Préfecture - Point d'Accueil Numérique,,,03 86 60 70 80,,,I,NMM
3.145417,46.992214,rue du 13e de ligne,58000,NEVERS,58,D_58,RobotLab,http://accessrobotique.fr/,,,,,F,
3.123688,46.986717,47 Boulevard du Pré-Plantin,58000,NEVERS,58,D_58,Union départementale des Associations Familiales,,,03 86 93 01 93,,,F,NMM
3.657528,47.052947,Couveuse Potentiel,58022,NEVERS,58,D_58,Couveuse Potentiel,,,,,,T,
3.931241,47.057507,Kiosque numérique de Chatillon en Bazois,58110,CHATILLON-EN-BAZOIS,58,D_58,Kiosque numérique de Chatillon en Bazois,,,,,,M,
3.658447,47.056157,1bis rue de la picherotte,58110,CHÂTILLON-EN-BAZOIS,58,D_58,MFS Châtillon en Bazois,,msap.chatillon@csbazois.org,06 95 19 00 45,,,I,-MSAP-NMM-MFS
3.822425,47.279286,Centre Social de Château - Chinon  Cyberespace,58120,CHATEAU CHINON CAMPAGNE,58,D_58,Centre Social de Château - Chinon  Cyberespace,,,,,,I,
3.934114,47.062842,6 Place Notre Dame,58120,CHATEAU CHINON,58,D_58,Kiosque numérique de Château Chinon,,,,,,M,
3.934114,47.062842,6 Place Notre Dame,58120,CHÂTEAU CHINON,58,D_58,MFS Maison de la Solidarité Château-Chinon,,relaisaccueil-chateauchinon@hotmail.fr,,,,I,-MSAP-NMM-MFS
3.934114,47.062842,6 Place Notre Dame,58120,CHÂTEAU CHINON,58,D_58,Mission Locale Château,http://www.missionlocalenivernaismorvan.fr/,milonivernaismorvan@milobfc.fr,03 86 85 10 77,,,I,NMM
2.965153,47.281416,114 route d'Avallon,58140,LORMES,58,D_58,Cyber-base du Pays Nivernais Morvan,,,,,,M,
3.824312,47.298755,114 route d'Avallon,58140,LORMES,58,D_58,FabLab du Morvan,https://www.nivernaismorvan.net/les-fablabs-du-pays-nivernais-morvan-nievre/,ludivine.girard@nivernaismorvan.net,03 86 22 51 42,,,F,
3.824312,47.298755,114 route d'Avallon,58140,LORMES,58,D_58,Kiosque numérique de Lormes,,,,,,M,
3.822352,47.290082,Rue Henri Bachelin,58140,LORMES,58,D_58,MFS Lormes,,centre.social.lormes@wanadoo.fr,,,,I,-MSAP-NMM-MFS
3.824312,47.298755,114 Route d'Avallon,58140,LORMES,58,D_58,Mission numérique du pays Nivernais morvan,https://www.nivernaismorvan.net,,,,,I,NMM
2.953901,47.283696,5bis Place des Frères Mollet,58150,POUILLY-SUR-LOIRE,58,D_58,Centre social de Pouilly sur Loire - Promeneurs du net,https://www.centre-social-pouilly.fr,,03 86 39 14 33,,,I,NMM
2.548969,48.943755,Kiosque numérique de Pouilly sur Loire,58150,POUILLY SUR LOIRE,58,D_58,Kiosque numérique de Pouilly sur Loire,,,,,,M,
2.956327,47.283526,Rue Waldeck Rousseau,58150,POUILLY-SUR-LOIRE,58,D_58,MSAP Pouilly-sur-Loire,,msap.pouilly-sur-loire@laposte.fr,,,,I,-MSAP-NMM
3.264698,46.931340,1 Rue Paul Vaillant Couturier,58160,IMPHY,58,D_58,Centre social d'Imphy + kiosque numérique,,,03 86 90 78 00,,,I,NMM
2.936466,47.424502,Centre social et culturel de Luzy,58170,LUZY,58,D_58,Centre social et culturel de Luzy,,,,,,I,
3.970311,46.790619,Rue du Docteur Dollet,58170,LUZY,58,D_58,FabLab de Luzy,https://www.nivernaismorvan.net/les-fablabs-du-pays-nivernais-morvan-nievre/,segolene.delaroche@nivernaismorvan.net,06 32 73 57 07,,,F,
3.964710,46.787368,12 Avenue Marceau,58170,LUZY,58,D_58,MFS Luzy,,csluzycommeau@gmail.com,,,,I,-MSAP-NMM-MFS
3.352210,46.715787,55 Place de la Mairie,58190,DORNES,58,D_58,MSAP Dornes,,msap.dornes@laposte.fr,03 86 50 60 14,,,I,-MSAP-NMM
2.925567,47.402558,2bis Rue du Général Binot,58200,COSNE-SUR-LOIRE,58,D_58,Accorderie,http://www.accorderie.fr/cosne,,03 86 26 62 56,,,F,NMM
2.924985,47.413296,10 Rue Charles Flocquet,58200,COSNE-COURS-SUR-LOIRE,58,D_58,Association Familiale de Cosne (le Clos Saint-Jacques),,,03 86 93 01 93,,,F,NMM
2.927773,47.398137,15 Rue du Berry,58200,COSNE-COURS-SUR-LOIRE,58,D_58,CAF - Cosne-Cours-sur-Loire,,,03 86 28 20 96,,,I,NMM
2.917144,47.382690,2 rue des Minotiers,58200,COSNE-COURS-SUR-LOIRE,58,D_58,Centre d'affaires CAMPUS,https://www.ca-campus.com/,contact@ca-campus.com,03 86 26 84 58,,,T,
2.929442,47.397840,Rue Pierre et Marie Curie,58200,COSNE-COURS-SUR-LOIRE,58,D_58,E2C Nièvre - Cosne-Cours-sur-Loire,http://e2c58-bourgogne.sioucs.net,,03 86 22 13 23,,,T,NMM
2.918340,47.382654,2 rue des Ardoisiers,58200,COSNE-COURS-SUR-LOIRE,58,D_58,GRETA 58 - Antenne de Cosne-Cours-sur-Loire,,,03 86 26 75 75,,,O,NMM
2.926676,47.407276,Kiosque numérique de Cosne Cours sur Loire,58200,COSNE COURS SUR LOIRE,58,D_58,Kiosque numérique de Cosne Cours sur Loire,,,,,,M,
2.929188,47.418259,6 Rue des Forges,58200,COSNE-SUR-LOIRE,58,D_58,Médiathèque de Cosne,https://mediatheques-cclvn.bibenligne.fr/,,03 86 20 27 00,,,M,NMM
2.926676,47.407276,40 Rue des Rivières Saint-Agnan,58200,COSNE-SUR-LOIRE,58,D_58,Mission locale + Promeneurs du net,https://fr-fr.facebook.com/Missionlocale.BourgogneNivernaise/,milobourgognenivernaise@milobfc.fr,03 86 28 84 20,,,F-I,NMM
3.383671,47.359518,Mission locale de Cosne Cours sur Loire,58200,COSNE COURS SUR LOIRE,58,D_58,Mission locale de Cosne Cours sur Loire,,,,,,I,
2.924925,47.396745,45bis rue du Général Binot,58200,COSNE-COURS-SUR-LOIRE,58,D_58,Pôle Emploi - Cosne-Cours-sur-Loire,,,,,,I,NMM
2.922222,47.412261,7bis Rue Eugène Pelletan,58200,COSNE-SUR-LOIRE,58,D_58,Sous-préfecture - Point d'accueil numérique,,,03 86 26 70 48,,,I,NMM
2.924975,47.397126,45 rue du Général Binot,58207,COSNE-COURS-SUR-LOIRE,58,D_58,CPAM - Agence de Cosne-Cours-sur-Loire,,,,,,I,NMM
3.393437,47.407882,Cyber-base Varzy,58210,VARZY,58,D_58,Cyber-base Varzy,,,,,,M,
3.393437,47.407882,Route des écoles,58210,COURCELLES,58,D_58,Fédération de Libération du Multimédia Campagnard,https://www.facebook.com/flmc58/,,03 86 29 51 51,,,F,NMM
3.280579,47.368585,Le Bourg,58210,MENOU,58,D_58,Mairie de Menou,http://www.menou58.fr/,,03 86 39 81 94,,,I,NMM
3.385824,47.356581,7 Rue Nicolas Colbert,58210,VARZY,58,D_58,MFS Espace socio-culturel de Varzy,,centresocial.58210@wanadoo.fr,03 86 29 41 39,,,I,-MSAP-NMM-MFS
3.123736,47.368367,Télécentre de Varzy,58210,VARZY,58,D_58,Télécentre de Varzy,,,,,,T,
4.026735,47.217176,Kiosque numérique de Donzy,58220,DONZY,58,D_58,Kiosque numérique de Donzy,,,,,,M,
3.126331,47.371007,10 Rue d'Osmond,58220,DONZY,58,D_58,Médiathèque de Donzy,https://mediatheques-cclvn.bibenligne.fr/mediatheque-de-donzy http://www.bibliotheque-donzy.fr/search.php?action=Accueil,,09 77 73 64 51,,,M,NMM
3.125918,47.373057,1 place de la Mairie,58220,DONZY,58,D_58,MFS Donzy,http://www.mairie-donzy.fr/telecentre,accueilmairie@mairie-donzy.fr,03 86 36 30 28,,,I,MFS
3.118797,47.370621,18 rue du Général Leclerc,58220,DONZY,58,D_58,MSAP Donzy,,msap-donzy@orange.fr,,,,I,-MSAP-NMM
3.466752,46.890956,Kiosque numérique de Montsauche les Settons,58230,MONTSAUCHE LES SETTONS,58,D_58,Kiosque numérique de Montsauche les Settons,,,,,,M,
3.991457,47.230163,Place Marcel Mariller,58230,MONTSAUCHE-LES-SETTONS,58,D_58,MFS Montsauche les Settons,,relais.accueil-montsauche@orange.fr,,,,I,-MSAP-NMM-MFS
4.046302,47.209144,Place du 25 juin 1944,58230,MONTSAUCHE-LES-SETTONS,58,D_58,MSAP La Poste Montsauche-les-Settons,,msap.montsauche-les-settons@laposte.fr,,,,I,-MSAP
3.179103,46.734578,20 Rue des Ecoles,58240,CHANTENAY SAINT IMBERT,58,D_58,Bibliothèque de Chantenay St Imbert,https://www.ville-chantenay-saint-imbert.fr/bibliotheque-municipale,,03 86 37 99 86,,,M,NMM
3.121975,46.794095,35 avenue du 8 mai,58240,SAINT-PIERRE-LE-MOÛTIER,58,D_58,MFS Saint-Pierre-le-Moûtier,,msap.csstpierre@orange.fr,,,,I,-MSAP-NMM-MFS
3.190219,46.728330,Route de Dornes,58240,CHANTENAY-SAINT-IMBERT,58,D_58,MSAP Chantenay-Saint-Imbert,,msap.chantenay-st-imbert@laposte.fr,,,,I,-MSAP-NMM
3.402931,47.017134,Kiosque numérique de La Machine,58260,LA MACHINE,58,D_58,Kiosque numérique de La Machine,,,,,,M,
3.464459,46.888718,3 Avenue de La République,58260,LA MACHINE,58,D_58,MFS La Machine,,fonctionaccueil@csc-lamachine.fr,,,,I,-MSAP-NMM-MFS
3.839072,46.976395,Cyber-base St-Benin d'Azy,58270,SAINT BENIN D AZY,58,D_58,Cyber-base St-Benin d'Azy,,,,,,M,
3.393958,46.999398,2 rue Claude Montaron,58270,SAINT BENIN D'AZY,58,D_58,Médiathèque de St Benin d'Azy,http://www.saint-benin-dazy.fr/mediatheque,,03 86 37 42 20,,,M,NMM
3.392872,46.999006,1 place de la république,58270,SAINT-BENIN-D'AZY,58,D_58,MFS Centre socio-culturel des Amognes - St Benin d'Azy,,csdesamognes@orange.fr,,,,I,-MSAP-NMM-MFS
3.809117,46.988058,2 Rue de la Mission,58290,MOULINS-ENGILBERT,58,D_58,MFS Centre Social de Moulins-Engilbert,,centre-social-moulins-engilbert@wanadoo.fr,,,,I,-MSAP-NMM-MFS
3.451116,46.828285,Télécentre du Sud Morvan,58290,MOULINS-ENGILBERT,58,D_58,Télécentre du Sud Morvan,,,,,,T,
3.447678,46.828718,1 Route d'Avril,58300,DECIZE,58,D_58,Club informatique SLB Informatique,,,06 99 28 83 58,,,F,NMM
3.660741,46.878758,Cyber-base de Sougy,58300,SOUGY SUR LOIRE,58,D_58,Cyber-base de Sougy,,,,,,M,
3.399431,46.861568,Kiosque numérique de Decize,58300,DECIZE,58,D_58,Kiosque numérique de Decize,,,,,,M,
3.073386,47.530573,21 Grande rue,58310,SAINT AMAND EN PUISAYE,58,D_58,Club Générations Mouvement de Saint-Amand-en-Puisaye,http://gem-saint-amand-en-puisaye.blog4ever.com,,,,,F,NMM
3.076759,47.529427,12 bis rue du Faubourg Neuf,58310,SAINT AMAND EN PUISAYE,58,D_58,MSAP Saint-Amand-en-Puisaye,,msap-saintamand@cscpf.fr,,,,I,-MSAP-NMM
3.512185,47.103967,1  Place de la République,58330,SAINT-SAULGE,58,D_58,MFS Saint-Saulge,,cathy-rsp@escn58.info,,,,I,-MSAP-NMM-MFS
3.352295,46.716040,Kiosque numérique de Cergy la Tour,58340,CERCY LA TOUR,58,D_58,Kiosque numérique de Cergy la Tour,,,,,,M,
3.645593,46.861563,4 Rue François Mitterrand,58340,CERCY-LA-TOUR,58,D_58,MFS Centre social de Fours,www.centresocialfours.fr,csocialfours@wanadoo.fr,,,,I,-MSAP-NMM-MFS
3.840221,46.905193,5 Rue Eugène Collin,58360,SAINT-HONORE-LES-BAINS,58,D_58,MSAP Saint-Honoré-Les-Bains,,msap.saint-honore-les-bains@laposte.fr,,,,I,-MSAP-NMM
3.017599,47.180055,Bibliothèque Municipale de Dornes,58390,DORNES,58,D_58,Bibliothèque Municipale de Dornes,,,,,,M,
3.516129,47.461615,,58400,LA CHARITE SUR LOIRE,58,D_58,kiosque numérique de La Charité sur Loire,,,,,,M,
3.020257,47.180233,5 Rue Antoine Amiot,58400,LA CHARITE SUR LOIRE,58,D_58,Mission locale Bourgogne Nivernaise,https://fr-fr.facebook.com/Missionlocale.BourgogneNivernaise/,,03 86 93 94 10,,,I,NMM
3.254462,47.459291,2 Place de l'hôtel de ville,58410,ENTRAINS SUR NOHAIN,58,D_58,Mairie d'Entrains sur Nohain,http://www.entrains-sur-nohain.com/,,03 86 29 22 06,,,I,NMM
3.490676,47.281471,9  rue du Commandant Guerreau,58420,BRINON-SUR-BEUVRON,58,D_58,MFS Brinon sur Beuvron,,centresocialbrinon@orange.fr,,,,I,-MSAP-NMM-MFS
2.881869,47.522318,Rue Jean Jaurès,58450,NEUVY SUR LOIRE,58,D_58,Association Familles Rurales,,,03 86 39 24 55,,,F,NMM
2.882576,47.522698,Place Alexandrine Semence,58450,NEUVY SUR LOIRE,58,D_58,Médiathèque de Neuvy,https://mediatheques-cclvn.bibenligne.fr/mediatheque-de-neuvy-sur-loire,,03 86 39 14 33,,,M,NMM
3.152511,46.883841,Place de l'Eglise,58470,MAGNY-COURS,58,D_58,MSAP Magny-Cours,,msap.magny-cours@laposte.fr,,,,I,-MSAP-NMM
3.514908,47.460422,12  rue de Druyes,58500,CLAMECY,58,D_58,Fab'N'Lab de la Nièvre,https://www.facebook.com/fabnlab/,,03 58 57 05 58,,,F,
3.515036,47.461028,6bis Rue Druyes,58500,CLAMECY,58,D_58,Maison de la formation,,,03 86 27 51 86,,,O,NMM
3.333171,47.171884,Kiosque numérique de Fourchambault,58600,FOURCHAMBAULT,58,D_58,Kiosque numérique de Fourchambault,,,,,,M,
3.084711,47.018815,Avenue Jean Jaurès,58600,FOURCHAMBAULT,58,D_58,MFS Centre Social de Fourchambault,,directioncsf@free.fr,,,,I,-MSAP-NMM-MFS
3.330071,47.176609,10 Place de l'église,58700,PREMERY,58,D_58,Centre socioculturel Intercommunal Pierre Melot,http://cpremery.fr/,,03 86 68 11 30,,,I,NMM
3.684695,47.256476,Kiosque numérique de Premery,58700,PREMERY,58,D_58,Kiosque numérique de Premery,,,,,,M,
3.332109,47.175158,26 cour du chateau,58700,PREMERY,58,D_58,MSAP Prémery,,msap@cclnb.fr,,,,I,-MSAP-NMM
3.683598,47.257471,9 rue des Arcées,58800,CORBIGNY,58,D_58,Association Pour l'Insertion et l'AcCompagnement Social (AGAI),,,03 86 20 26 26,,,F,NMM
6.155145,47.620792,Kiosque numérique de Corbigny,58800,CORBIGNY,58,D_58,Kiosque numérique de Corbigny,,,,,,M,
3.684002,47.257076,3 Grande Rue,58800,CORBIGNY,58,D_58,MFS Maison de Pays Corbigny,,accueil@cctbc.fr,,,,I,-MSAP-NMM-MFS
6.155131,47.620657,38 rue Paul Morel,70000,VESOUL,70,D_70,Centre d'Information Jeunesse de Vesoul,http://www.ij70.com/,informatique@ij70.com,03 84 97 00 90,,,I,
6.155862,47.623096,4  rue Alsace Lorraine,70000,VESOUL,70,D_70,Cyber-Base de Vesoul,http://www.vesoul.fr/index.php?option=com_content&task=blogcategory&id=67&Itemid=151,postmaster@vesoul.fr,03 84 97 07 06,,,M,
6.146591,47.619645,4 rue André Maginot,70000,VESOUL,70,D_70,Mission Locale du Bassin d'Emploi de Vesoul,milovesoul.org,missionlocalevesoul@milo-bfc.fr,03 84 76 38 19,,,I,
6.154717,47.633509,Centre Commercial du Grand Monmarin Rue Edouard Belin,70000,VESOUL,70,D_70,Virtualgames,,s.edme70@laposte.net,03 84 92 19 43,,,F,
5.589776,47.445906,60 Grande rue,70100,GRAY,70,D_70,Bureau Information Jeunesse de Gray,,bij.gray@wanadoo.fr,03 84 65 44 00,,,I,
5.587940,47.448537,3  quai Mavia,70100,GRAY,70,D_70,Espace MultiMédia du Val de Gray,,multimedia.valdegray@gmail.com,03 84 68 01 02,,,M,
5.584394,47.454959,6 rue des Stades,70100,ARC LES GRAY,70,D_70,Mission Locale du Bassin Graylois,missionslocales-bfc.fr/mission-locale-bassin-graylois/,milobassingraylois@milobfc.fr,03 84 64 88 38,,,I,
5.591977,47.430450,2 rue de Lorraine,70100,GRAY,70,D_70,MSAP Gray,,toiservices@ville-gray.fr,,,,M,-MSAP
5.590306,47.450280,3  quai de l'Ecluse,70100,GRAY,70,D_70,Salle Multimédi@ de Gray,,ntic.gray@wanadoo.fr,03 84 65 45 66,,,F-M,
6.428281,47.549418,144 rue de la prairie,70110,VILLERSEXEL,70,D_70,Espace Public Numérique de la Communauté de Communes du Pays de Villersexel,http://www.cc-pays-villersexel.fr/user/pages/contenu_php/salle.php,epn.ccpv@orange.fr,06 72 31 39 47,,,M,
6.432014,47.550792,Place du Général de Gaulle,70110,VILLERSEXEL,70,D_70,MSAP Villersexel,,msap.villersexel@laposte.fr,,,,I,-MSAP
5.783542,47.625281,Mairie de Lavoncourt,70120,LAVONCOURT,70,D_70,Amicale Cyber espace de Lavoncourt,,mairielavoncourt@wanadoo.fr,03 84 92 06 99,,,F-I,
5.785663,47.626564,12 rue du Tire Sachot,70120,LAVONCOURT,70,D_70,MFS Val Fleuri,,aurelie.cias@orange.fr,03 84 76 58 44,,,I,-MSAP-MFS
5.946111,47.487598,21 grande rue,70130,FRETIGNEY-ET-VELLOREILLE,70,D_70,MSAP Fretigney et Velloreille,,pvs.fretigney@gmail.com,,,,I,-MSAP
5.559356,47.283404,Place des Tilleuls,70140,PESMES,70,D_70,MSAP Pesmes,,msap.pesmes@laposte.fr,,,,I,-MSAP
5.769657,47.289935,Place du Roi de Rome,70150,MARNAY,70,D_70,MSAP Marnay,,msap.marnay@laposte.fr,,,,I,-MSAP
6.102624,47.766402,1 rue du Général Leclerc,70160,FAVERNEY,70,D_70,MSAP Faverney - Terres de Saône,,m.burney@cctds.fr,,,,I,-MSAP
6.037433,47.692627,1  rue Pierre Bogé,70170,PORT SUR SAONE,70,D_70,CFPPA-APP de Port sur Saône,,cfppa.vesoul@educagri.fr,03 84 96 85 24,,,O,
6.068799,47.422404,Place du Souvenir Français,70190,RIOZ,70,D_70,MFS Pays des 7 Rivières,,msaprioz@gmail.com,,,,I,-MSAP-MFS
6.497352,47.686457,17  esplanade Charles de Gaulle,70200,LURE,70,D_70,Espace NetPublic CyberBase du Centre Social et Culturel de Lure,http://www.centre-social-lure.org/,centre.social.lure@wanadoo.fr,03 84 30 49 30,,,M-I,
6.424572,47.735178,1 bis rue de l'Eglise,70200,QUERS,70,D_70,MFS de la Communauté de communes Triangle Vert,,david.yoder@cctv70.fr,03 84 94 78 95,,,I,-MSAP-MFS
6.490451,47.686017,3 rue Parmentier,70200,LURE,70,D_70,Mission Locale de Lure / Luxeuil-les-Bains / Champagney,missionslocales-bfc.fr/mission-locale-llc/,milolureluxeuilchampagney@milobfc.fr,03 84 89 00 33,,,I,
6.425182,47.735540,2 rue de l'église,70200,QUERS,70,D_70,Points Numériques Franches Communes,http://www.franches-communes.org/,franches.communes@wanadoo.fr,03 84 94 78 95,,,M,
6.127047,47.884615,Rue de la Cornée,70210,MELINCOURT,70,D_70,Espace Public Les Belles Sources,,catherine.joubin@wanadoo.fr,06 71 58 10 80,,,M,
6.411375,47.902285,familles rurale place de l'hotel de ville,70220,FOUGEROLLES,70,D_70,Cyber Val.SE de Fougerolles,,cybervalse@cc-valdesemouse.fr,03 84 94 17 93,,,M,
6.353297,47.661652,Espace Public Numérique de Dampierre sur Linotte,70230,DAMPIERRE SUR LINOTTE,70,D_70,Espace Public Numérique de Dampierre sur Linotte,,,,,,M,
6.345924,47.635620,Mairie de Noroy Le Bourg,70240,LIEVANS,70,D_70,Association animation jeunesse de Lievans,,animationjeunesse@wanadoo.fr,03 84 78 77 11,,,F,
6.279902,47.695666,Place du Grand Puits,70240,SAULX,70,D_70,MSAP Saulx,,msap.saulx@laposte.fr,,,,I,-MSAP
6.633079,47.708294,rue du Tram,70250,RONCHAMP,70,D_70,Cybercentre de Ronchamp - Médiathèque,,ccrahincherimont@wanadoo.fr,03 84 27 93 15,,,M,
6.637199,47.699820,20b rue Paul Strauss,70250,RONCHAMP,70,D_70,Fab Lab la Filature 2.0,http://www.lafilaturederonchamp.fr,contact@lafilaturederonchamp.fr,03 39 21 21 42,,,F,
6.579000,47.753452,11  Grande Rue,70270,MELISEY,70,D_70,Espace Public Numérique de la Communauté de communes de la Haute vallée de l'Ognon,,melisey.cchvo@wanadoo.fr,03 84 20 05 53,,,M,
6.688703,47.701260,Médiathèque de Champagney  Grande rue,70290,CHAMPAGNEY,70,D_70,Cybercentre de Champagney,,ccrahincherimont@wanadoo.fr,03 84 27 93 15,,,M,
6.731319,47.717178,Rue Louis Pergaud,70290,PLANCHER BAS,70,D_70,Cybercentre de Plancher Bas - Médiathèque,,ccrahincherimont@wanadoo.fr,03 84 27 93 15,,,M,
6.685299,47.704804,Place Charles de Gaulle,70290,CHAMPAGNEY,70,D_70,MFS Rahin et Chérimont - Champagney,,v.duban@ccrc70.fr,,,,I,-MSAP-MFS
6.359512,47.818898,rue salvador allende,70300,LUXEUIL LES BAINS,70,D_70,Association Jeunes Espoirs de Luxeuil,,ajelluxeuil@wanadoo.fr,03 84 40 52 93,,,F,
6.379386,47.819424,35 rue Carnot,70300,LUXEUIL LES BAINS,70,D_70,Bureau Information Jeunesse de Luxeuil les Bains,,bij.luxeuil@wanadoo.fr,03 84 40 12 28,,,I,
6.383922,47.806381,4  rue Just Pingand,70300,SAINT SAUVEUR,70,D_70,Centre Multimedia de St Sauveur,,asso.st-sauveur@wanadoo.fr,03 84 40 59 32,,,M,
6.336716,47.936628,bibliotheque le temps de lire place pierre Bolle 70320 Aillevillers,70320,AILLEVILLERS ET LYAUMONT,70,D_70,Cyber Val.SE d'Aillevillers et Lyaumont,,cybervalse@cc-valdesemouse.fr,03 84 94 17 93,,,M,
6.325523,47.890023,Bibliothèque salle d'asile  place de l'eglise,70320,CORBENAY,70,D_70,Cyber Val.SE de Corbenay,,cybervalse@cc-valdesemouse.fr,03 84 94 17 93,,,M,
6.292208,47.885222,57 rue des Ballastières,70320,CORBENAY,70,D_70,MFS/PIJ de la Haute Comté,,msappij@cchc.fr,03 84 49 76 25,,,I,-MSAP-MFS
5.972356,47.665199,1 avenue de Verdun,70360,SENNECEY-SUR-SAÔNE-SAINT-ALBIN,70,D_70,MSAP Sennecey-sur-Saône et Saint-Albin,,msap.scey-sur-saone-et-st-albin@laposte.fr,,,,I,-MSAP
6.756919,47.572185,1 rue de la Tuilerie,70400,HERICOURT,70,D_70,Hérilab,http://www.cc-pays-hericourt.fr/rubrique.php?id=630,mediatheque@cc-pays-hericourt.fr,03 84 46 03 30,,,F,
6.756945,47.572184,11 rue de la tuilerie,70400,HERICOURT,70,D_70,Mission Locale d'Héricourt - Villersexel,,missionlocalehericourt@milobfc.fr,03 84 46 58 03,,,I,
6.720897,47.842509,3 rue de la vierge,70440,HAUT-DU-THEM-CHÂTEAU-LAMBERT,70,D_70,MSAP Haut du Them Château Lambert,,rsphautduthem@laposte.net,,,,I,-MSAP
5.841782,47.812036,Pré Jean Roche,70500,JUSSEY,70,D_70,MSAP Hauts du Val de Saône,,marilyn.furtin@cchvs.fr,,,,I,-MSAP
5.515640,47.614710,Rue de la République,70600,CHAMPLITTE,70,D_70,MSAP Champlitte,,msap.champlitte@laposte.fr,,,,I,-MSAP
6.266073,47.885253,12 rue Henry Guy,70800,SAINT LOUP SUR SEMOUSE,70,D_70,Centre Multimédia de St Loup sur Semouse,,saint-loup.multimédia@wanadoo.fr,03 84 94 26 66,,,M,
6.335297,47.872919,bibliothèque le temps de lire Salle polyvalente,70800,FONTAINE LES LUXEUIL,70,D_70,Cyber Val.SE de Fontaine les Luxeuil,,cybervalse@cc-valdesemouse.fr,03 84 94 17 93,,,M,
6.266073,47.885253,,70800,SAINT LOUP SUR SEMOUSE,70,D_70,Cyber Val.SE de St Loup sur Semouse,,cybervalse@cc-valdesemouse.fr,03 84 94 17 93,,,M,
6.272287,47.886174,3  rue de l'Abattoir,70800,SAINT-LOUP-SUR-SEMOUSE,70,D_70,Lab'Haut Comtois,http://www.labhautcomtois.fr,,,,,F,
6.280088,47.885121,14 bis rue de la Viotte,70800,SAINT LOUP SUR SEMOUSE,70,D_70,Point Information Jeunesse de St Loup sur Semouse,,pij.stloup@wanadoo.fr,03 84 49 09 39,,,I,
4.832034,46.308346,,71000,MÂCON,71,D_71,Association Départementale Information Jeunesse 71,,,,,,F-I,
4.830644,46.302181,,71000,MÂCON,71,D_71,Cave à Musique,,,,,,F,
4.836376,46.309889,,71000,MÂCON,71,D_71,Couveuse Potentiel,,,,,,T,
4.837787,46.310361,,71000,MÂCON,71,D_71,Le Cyberphare,,,,,,F,
4.828139,46.304852,82 rue Victor Hugo,71000,Mâcon,71,D_71,Locow coworking,www.locow.fr,contact@locow.fr,03 85 31 13 97,,,T,
4.837787,46.310361,1000 Avenue Maréchal Lattre de Tassigny,71000,MÂCON,71,D_71,Mission Locale du Mâconnais,missionlocale-macon.fr,milomaconnais@milobfc.fr,03 85 39 95 00,,,I,
46.312400,4.838890,800 avenue Maréchal de Lattre de Tassigny,71000,MACON,71,D_71,OPAC Saône et Loire,opac.fr,frederique.granget-minet@opacsaoneetloire.fr,03 85 32 60 76,,,I,RIN
4.835909,46.308788,Point Cyber CCI de Mâcon-Charolles-Tournus,71000,MÂCON,71,D_71,Point Cyber CCI de Mâcon-Charolles-Tournus,,,,,,M,
4.852363,46.753763,Trav'Ailleurs,71000,MÂCON,71,D_71,Trav'Ailleurs,,,,,,F,
46.780230,4.846354,15 Avenue Victor Hugo,71100,CHALON SUR SAONE,71,D_71,Caisse d'Allocations Familiales de Châlon-sur-Saône,,,08 10 25 71 10,,,I,RIN
46.779661,4.858338,7 Quai de l'Hôpital,71100,CHALON SUR SAONE,71,D_71,CCAS Chalon sur Saône,,,03 85 93 85 41,,,I,RIN
46.783200,4.857680,7 rue de l'Ancien Collège,71100,CHALON SUR SAONE,71,D_71,Centre Interculturel Conseil Formation Médiation,https://www.facebook.com/centreinterculturel.cicfm,cicfm.direction@gmail.com,03 85 48 08 44,,,I,RIN
46.784200,4.851320,1 rue Gauthey,71100,CHALON SUR SAONE,71,D_71,Collectif Associatif Local Pour l'Inclusion Numérique (CALPIN),,calpin71@sfr.fr,06 22 43 49 80,,,F,RIN
4.846550,46.776441,Couveuse Potentiel,71100,CHALON SUR SAÔNE,71,D_71,Couveuse Potentiel,,,,,,T,
4.828612,46.770078,Espace multimédia de Chalon sur Saône,71100,CHALON SUR SAÔNE,71,D_71,Espace multimédia de Chalon sur Saône,,,,,,M,
4.827097,46.780769,Espace Multimédia de Lux,71100,LUX,71,D_71,Espace Multimédia de Lux,,,,,,M,
4.827097,46.780769,Espace Multimédia de Saint-Rémy,71100,SAINT REMY,71,D_71,Espace Multimédia de Saint-Rémy,,,,,,M,
4.835546,46.788894,141  avenue Boucicaut,71100,CHALON SUR SAÔNE,71,D_71,FabLab Chalonnais,http://fablab-chalon.fr/,,,,,F,
4.827097,46.780769,Info'Rom (CCAS),71100,CHALON SUR SAÔNE,71,D_71,Info'Rom (CCAS),,,,,,I,
46.783200,4.848120,29 boulevard de la République,71100,CHALON SUR SAONE,71,D_71,Kiosque Multimédia de Châlon-sur-Saône,facebook.com/servicejeunessechalon/,kiosque.multimEdia@chalonsursaone.fr,03 85 42 56 60,,,M,RIN
4.850121,46.778011,Quai Saint-Cosme,71100,CHALON SUR SAÔNE,71,D_71,La Raffinerie,https://urbidesk.com/space/9902,,,,,F,
46.770078,4.828612,4 bis Rue d'Ottweiler,71100,SAINT REMY,71,D_71,Médiathèque de St Rémy,http://lancre.saint-remy71.fr,lancre@saint-remy71.fr,03 85 42 54 55,,,M,RIN
46.753763,4.852363,2 Rue Raymond Balay,71100,LUX,71,D_71,Médiathèque l'Arob@se,http://larobase.opac3d.fr,larobasemediatheque@lux71.com,03 85 48 28 33,,,M,RIN
4.866845,46.797587,4 rue Jules Ferry,71100,CHALON SUR SAÔNE,71,D_71,Mission Locale du Châlonnais,missionlocaleduchalonnais.fr,milochallonnais@milobfc.fr,03 85 97 47 59,,,I,
4.846550,46.776441,34  quai de Saint-Cosme,71100,CHALON SUR SAÔNE,71,D_71,Nicéphore Labs,http://nicephorelabs.fr,,,,,F,
46.777000,4.846240,7 rue Georges Maugey,71100,CHALON SUR SAONE,71,D_71,PLIE du Grand Chalon - Sucrerie rouge,,plie.grandchalon@legrandchalon.fr,03 85 90 50 09,,,F-I,RIN
46.792300,4.849570,74 avenue de Paris,71100,CHALON SUR SAONE,71,D_71,SASTI BFC,https://www.facebook.com/SASTIBourgogne21,nathalie.botovelo@sasti-bfc.fr,07 60 40 74 75,,,I,RIN
46.790100,4.863060,18 rue Pierre Nugue,71100,CHALON SUR SAONE,71,D_71,Savoirs Plus,www.savoirs-plus.com,contact@savoirs-plus.com,09 72 38 19 69,,,O,RIN
46.782500,4.853700,28 rue du général Leclerc,71100,CHALON SUR SAONE,71,D_71,Sous-préfecture de Chalon-sur-Saône,www.saone-et-loire.gouv.fr,sous-prefecture-de-chalon-s-saone@saone-et-loire.pref.gouv.fr,03 85 42 55 55,,,I,RIN
4.067991,46.598402,club informatique de Gueugnon,71130,GUEUGNON,71,D_71,club informatique de Gueugnon,,,,,,F,
4.059696,46.599447,Place de l'église,71130,GUEUGNON,71,D_71,FabLabinox,http://syntaxerreur2-0.fr/,contact.syntaxe@syntaxerreur2-0.fr,03 85 24 22 76,,,F,
4.067991,46.598402,47 rue de la Convention,71130,GUEUGNON,71,D_71,Mission Locale du Charolais,,milocharolais@milobfc.fr,03 85 85 49 30,,,I,
3.761385,46.624406,Point Information Jeunesse de Gueugnon,71130,GUEUGNON,71,D_71,Point Information Jeunesse de Gueugnon,,,,,,I,
4.770933,46.849637,Cyber espace de Bourbon Lancy,71140,BOURBON LANCY,71,D_71,Cyber espace de Bourbon Lancy,,,,,,M,
3.979050,46.481963,Espace Multimédia de Fontaines,71150,FONTAINES,71,D_71,Espace Multimédia de Fontaines,,,,,,M,
4.742120,46.874300,1 rue Neuve,71150,RULLY,71,D_71,Mon Assistant Numérique Chalon,http://chalonsursaone.MonAssistant.Numerique.com,christophevenin@pratimedia.com,06 60 81 97 21,,,O,RIN
3.987782,46.488576,Bibliothèque Municipale de Digoin,71160,DIGOIN,71,D_71,Bibliothèque Municipale de Digoin,,,,,,M,
4.336669,46.207113,Espace Jeunesse de Digoin,71160,DIGOIN,71,D_71,Espace Jeunesse de Digoin,,,,,,I,
4.344631,46.207637,Place de la Gare,71170,CHAUFFAILLES,71,D_71,MFS PIMMS de Chauffailles,,pimmscantondechauffailles@pimms.org,03 85 24 29 50,,,I,-MSAP-MFS
4.431710,46.789884,Espace Information Jeunesse-CyberJ d'Etang sur Arroux,71190,ETANG SUR ARROUX,71,D_71,Espace Information Jeunesse-CyberJ d'Etang sur Arroux,,,,,,I,
4.180601,46.867816,2 bis rue d'Autun,71190,ETANG-SUR-ARROUX,71,D_71,MSAP Pôle de proximité Etang sur Arroux,,jean-Louis.souchet@grandautunoismorvan.fr,,,,I,-MSAP
4.513147,46.759896,Espace Cyber Jeunes : Mission Locale Le Creusot,71200,LE CREUSOT,71,D_71,Espace Cyber Jeunes : Mission Locale Le Creusot,,,,,,M-I,
4.413349,46.806814,12  rue de la Fonderie,71200,LE CREUSOT,71,D_71,FabLab UtoPi,http://www.fablab-utopi.org/,,,,,F,
4.441198,46.793445,L'arobase,71200,LE CREUSOT,71,D_71,L'arobase,,,,,,F,
4.421359,46.800073,1 rue Edith Cavell,71200,LE CREUSOT,71,D_71,Médiathèque municipale du Creusot - EPN,,epncreusot1@yahoo.fr,03 85 77 58 00,,,M,
4.403930,46.829923,Place Salignac Fénelon,71200,SAINT-SERNIN-DU-BOIS,71,D_71,MSAP Saint-Sernin du Bois,,servicesgeneraux@mairiesaintsernindubois.fr,,,,I,-MSAP
4.429984,46.806450,5 avenue François Mitterrand,71200,LE CREUSOT,71,D_71,Pôle Insertion emploi - Association AGIRE,agire-cucm.fr,milocreusotmontceau@milobfc.fr,03 85 77 68 01,,,F-I,
4.465704,46.749907,12 rue Lamartine,71210,MONTCHANIN,71,D_71,CLIC - EPN de Montchanin,,epnmontchanin@gmail.com,03 62 72 95 21,,,I-M,
4.465704,46.749907,40 route du Canal,71210,ECUISSES,71,D_71,Cyber jeunes d'Ecuisses,,cyberecuisses@yahoo.fr,03 85 78 99 00,,,M,
4.514078,46.761851,Rue du 19 Mars 1962,71210,ECUISSES,71,D_71,MSAP Ecuisses,,mairie.ecuisses@wanadoo.fr,,,,I,-MSAP
4.438949,46.481012,Place de la Poste,71220,SAINT-BONNET-DE-JOUX,71,D_71,MFS PIMMS Val de Joux,,pimmsvaldejoux@pimms.org,,,,I,-MSAP-MFS
4.369329,46.640650,Rue Victor Hugo,71230,SAINT VALLIER,71,D_71,Espace Public Numérique de St Vallier - ECLA,,cedric.ferry@mairie-saintvallier.fr,03 85 67 78 98,,,M-I,
46.644575,4.861923,32 Rue des Mûriers,71240,SENNECEY LE GRAND,71,D_71,MFS Sennecey le Grand,,msap.sennecey@orange.fr,03 85 44 99 28,,,I,-MSAP-RIN-MFS
4.661804,46.432234,2 rue Porte de Paris,71250,CLUNY,71,D_71,FabLab Clunisois,http://www.fablabclunisois.fr,,,,,F,
4.989660,46.623553,Maison familiale du Clunisois,71250,MAZILLE,71,D_71,Maison familiale du Clunisois,,,,,,F-O,
4.651346,46.429922,5 place du marché,71250,CLUNY,71,D_71,MSAP Clunisois,,contact@enclunisois.com,,,,I,-MSAP
4.598063,46.520024,12 place Gandin,71250,SALORNAY-SUR-GUYE,71,D_71,MSAP Salornay-sur-Guye,,msap.salornay-sur-guye@laposte.fr,,,,I,-MSAP
46.559931,5.002134,Rue de l'Eglise,71290,CUISERY,71,D_71,CAF - Point Relais de Cuisery,,,03 85 27 03 90,,,I,RIN
46.559700,5.002150,Rue de l'Eglise,71290,CUISERY,71,D_71,Centre Animation Sociale et Culturelle,http://centreanimation-cuisery.e-monsite.com,centreanimation-cuisery@wanadoo.fr,03 85 27 03 90,,,I,RIN
4.351820,46.690645,Simandre Info',71290,SIMANDRE,71,D_71,Simandre Info',,,,,,F,
4.891945,46.773882,Cyber-base Ecole du Plessis,71300,MONTCEAU LES MINES,71,D_71,Cyber-base Ecole du Plessis,,,,,,M,
4.352602,46.691208,Rue de Mâcon,71300,MONTCEAU LES MINES,71,D_71,EPN Montceau - Espace Trait d'Union,,epn@montceaulesmines.fr,03 85 67 90 70,,,M-F,
46.800258,5.186782,Place de la Mairie,71310,MERVANS,71,D_71,MSAP Mervans,,msap.mervans@laposte.fr,,,,I,-MSAP-RIN
4.135983,46.709121,rue du moulin,71320,TOULON-SUR-ARROUX,71,D_71,MSAP Moulin des Roches,,moulin-des-roches@wanadoo.fr,,,,I,-MSAP
46.753000,5.243160,14 place du Marché,71330,SAINT GERMAIN DU BOIS,71,D_71,Mairie de Saint Germain du Bois,www.saintgermaindubois.fr,mairie@saintgermaindubois.fr,03 85 72 01 47,,,I,RIN
5.240823,46.749576,14  Place du Marché,71330,SAINT-GERMAIN-DU-BOIS,71,D_71,MSAP Saint-Germain du Bois,,mairie-71330-saint-germain-du-bois@wanadoo.fr,,,,I,-MSAP
46.785600,4.846310,24 rue Jean Moulin,71332,CHALON SUR SAONE,71,D_71,CPAM Chalon,Ameli.fr,,36 46,,,I,RIN
4.016749,46.213316,Le Bourg,71340,MELAY,71,D_71,MFS PIMMS de Melay,,melay@pimms.org,,,,I,-MSAP-MFS
46.895699,5.024282,16 Rue de la République,71350,VERDUN SUR LE DOUBS,71,D_71,MFS Verdun sur le Doubs,,ccsaonedoubsbresse@orange.fr,03 85 91 66 16,,,I,-MSAP-RIN-MFS
4.513790,46.990895,place Charles de Gaulle,71360,EPINAC,71,D_71,MSAP Epinac,,Veronique.ROSSI-COTELLA@grandautunoismorvan.fr,,,,I,-MSAP
46.705900,5.051740,17 place de la Mairie,71370,SAINT-ETIENNE-EN-BRESSE,71,D_71,MSAP Saint-Etienne-en-Bresse,www.saint-etienne-en-bresse.fr,rsp.st.etienne.en.bresse@orange.fr,03 85 96 41 18,,,I,-MSAP-RIN
4.709445,46.753719,Agora des Jeunes - Espace Multimédia,71380,SAINT MARCEL,71,D_71,Agora des Jeunes - Espace Multimédia,,,,,,M-F,
46.774100,4.892490,95 grande Rue,71380,SAINT-MARCEL,71,D_71,Espace Multimédia de Saint-Marcel - Agor@95,https://www.facebook.com/marc.agora.7,m.chambonnier@saintmarcel.com,03 85 42 72 00,,,M-F,RIN
4.300509,46.958726,,71390,SAINT DESERT,71,D_71,EPN de St Désert,,,,,,M,
4.302105,46.959549,1 rue des Pierres,71400,AUTUN,71,D_71,CiLEF - Mission Locale de l'Autunois,cilef-orientation-emploi.fr,miloautunois@milobfc.fr,03 85 86 51 92,,,I,
4.304719,46.963123,Espace Cyber jeunes. MIFE d Autun,71400,AUTUN,71,D_71,Espace Cyber jeunes. MIFE d Autun,,,,,,M-I,
4.270113,46.970199,Rue du Maquis de l’Autunois,71400,AUTUN,71,D_71,FabLab de Bellevue,https://www.grandautunoismorvan.fr/l-economie/centre-de-ressources-numeriques/fablab-241.html,Raphael.mathieu@grandautunoismorvan.fr,03 85 86 51 16,,,F,
4.270113,46.970199,Rue du Maquis de l’Autunois,71400,AUTUN,71,D_71,La pépinière numérique de Bellevue,https://www.grandautunoismorvan.fr/l-economie/centre-de-ressources-numeriques/telecentre-244.html,amelie.chapet@grandautunoismorvan.fr,03 85 86 64 74,,,T,
4.300739,46.604773,Rue Pautet,71420,CIRY LE NOBLE,71,D_71,Espace Public Numérique de Ciry le Noble - Bibliothèque,,bibliotheque@cirylenoble.fr,03 85 79 05 13,,,M,
4.394146,46.699554,rue du 11 novembre 1918,71450,BLANZY,71,D_71,EPN de Blanzy,,epn@blanzy71 fr,06 38 37 46 41,,,M,
4.670813,46.580813,1 route des Prairies,71460,SAVIGNY-Sur-GROSNE,71,D_71,MSAP Communauté de communes entre Saone et Grosne,,m.blanchedeau.ccgmsv@orange.fr,,,,I,-MSAP
46.556054,5.164285,180 Route du Bourg,71470,SAINTE CROIX EN BRESSE,71,D_71,MSAP Sainte Croix en Bresse,,,03 85 74 36 32,,,I,-MSAP-RIN
5.164285,46.556054,180 route du Bourg,71470,SAINTE-CROIX,71,D_71,MSAP Sainte-Croix,,rspstecroix@laposte.net,,,,I,-MSAP
46.494730,5.389310,Château des Princes d'Orange,71480,CUISEAUX,71,D_71,CAF - Point Relais de Cuiseaux,,,03 85 72 71 27,,,I,RIN
4.574612,46.869007,Rue des Grands Bois,71490,COUCHES,71,D_71,MSAP Pôle de Proximité de Couches,,pole.couches@grandautunoismorvan.fr,,,,I,-MSAP
46.628000,5.217090,3 rue de Bram,71500,LOUHANS,71,D_71,Association Le Pont - Accueil de jour Louhans,,s.dumont@lepont.asso.fr,06 82 85 57 88,,,F-I,RIN
46.624455,5.233142,Avenue Ferdinand Point,71500,LOUHANS,71,D_71,CAF - Antenne de Louhans,,,08 10 25 71 10,,,I,RIN
46.626800,5.226630,4 promenade des Cordeliers,71500,LOUHANS,71,D_71,CLEFS71,,clefs71louhans@gmail.com,03 85 75 32 40,,,F-I,RIN
4.944707,46.876464,Couveuse Potentiel,71500,LOUHANS,71,D_71,Couveuse Potentiel,,,,,,T,
5.268276,46.658298,1400 route de Louhans,71500,MONTIGNY-PRES-LOUHANS,71,D_71,Labo'M,http://www.labo-m.club,fablab.labom@gmail.com,,,,F,
5.226634,46.626833,4 promenade des Cordeliers,71500,LOUHANS,71,D_71,Mission Locale de La Bresse Louhanaise,,milobresselouhanaise@milobfc.fr,03 85 74 91 00,,,I,
5.226486,46.627152,Point central cyber jeunes de Louhans,71500,LOUHANS,71,D_71,Point central cyber jeunes de Louhans,,,,,,M,
4.638973,46.847419,7 rue Thernaud,71510,SAINT-LEGER-SUR-DHEUNE,71,D_71,MSAP Saint-Léger-sur-Dheune,,ccmv-rsp@orange.fr,,,,I,-MSAP
4.510160,46.378825,Espace de coworking ZI Geneve Océan - RN79,71520,DOMPIERRE LES ORMES,71,D_71,Espace de coworking CCSCMB,https://www.scmb71.com/economie/economie-infrastructures/espaces-coworking,contact@scmb71.com,06 62 13 12 40,,,T,
4.482660,46.307300,Maison des associations n°4,71520,MATOUR,71,D_71,MSAP Haute-Grosne,,msap71520@gmail.com,,,,I,-MSAP
46.819400,4.836180,7 rue Charles Lemaux,71530,CHAMPFORGEUIL,71,D_71,CCAS Champforgeuil - Centre d'accueil pluriel (CAP),,cap.champforgeuil@orange.fr,03 85 41 41 02,,,I,RIN
46.813200,4.865600,16 rue Ferrée,71530,CRISSEY,71,D_71,Les Valoristes Bourguignons,www.valoristesbourguignons.com,contact@valoristesbourguignons.com,09 54 76 23 47,,,F,RIN
46.691700,5.370760,136 rue de l'Eglise,71580,SAILLENARD,71,D_71,MSAP Saillenard,,msap.saillenard@orange.fr,03 85 72 38 71,,,I,-MSAP-RIN
46.875900,4.944960,8A rue de la Velle,71590,GERGY,71,D_71,Espace multimédia de Gergy,https://www.ifac.asso.fr/Espace-Public-Numerique-Gergy,planet.mary21@gmail.com,03 85 91 77 63,,,M,RIN
4.742189,46.781466,Espace socio-culturel de Paray le Monnial,71600,PARAY LE MONIAL,71,D_71,Espace socio-culturel de Paray le Monnial,,,,,,I,
46.782200,4.745470,Place de l'église,71640,GIVRY,71,D_71,Bibliothèque municipale de Givry,http://givry.opac3d.fr/search.php?action=accueil,bibliotheque@mairiedegivry71.fr,03 85 44 44 55,,,M,RIN
4.467166,46.808152,Espace Multimédia de Givry,71640,GIVRY,71,D_71,Espace Multimédia de Givry,,,,,,I,
4.467166,46.808152,46 route de Couches,71670,LE BREUIL,71,D_71,Espace Public Numérique du Breuil,,epn@lebreuilbourgogne.fr,03 85 73 82 92,,,M,
4.194200,46.331900,Centre Multimédia Communautaire Arroux Mesvrin,71710,MARMAGNE,71,D_71,Centre Multimédia Communautaire Arroux Mesvrin,,,,,,M,
4.354793,46.836264,Le Bourg,71710,LES BIZOTS,71,D_71,Espace Public Numérique des Bizots,,epn.lesbizots@gmail.com,03 85 55 72 31,,,M,
4.812186,46.305827,Foyer rural d'Oye,71800,OYE,71,D_71,Foyer rural d'Oye,,,,,,F,
4.718166,46.345269,Point Cyb de Charnay les Macon,71850,CHARNAY LES MACON,71,D_71,Point Cyb de Charnay les Macon,,,,,,M,
46.798500,4.808160,2 rue Colette,71880,CHATENOY LE ROYAL,71,D_71,CCAS Chatenoy le Royal,,bpellicier@ccas-chatenoyleroyal,03 85 42 49 50,,,I,RIN
4.720257,46.344964,60 avenue de la gare,71960,LA ROCHE VINEUSE,71,D_71,Ecogit'Actions,http://www.ecogitactions.com,sopsomer@ecogitactions.com,03 85 39 00 95,,,F,
4.749492,46.303527,,71960,DAVAYE,71,D_71,Viti Lab - CA71,,,,,,F,
3.587097,47.800922,4 rue Paul Doumer,89000,AUXERRE,89,D_89,Atelier des Beaux Boulons,https://www.beauxboulons.com/,,,,,F,
3.564627,47.806545,Rue d Ardillière,89000,AUXERRE,89,D_89,Bibliothèque municipale Auxerre,perso.wanadoo.fr/bibaux,bibaux@wanadoo.fr,03 86 72 91 60,,,M,
3.551932,47.797768,8 Avenue Delacroix,89000,AUXERRE,89,D_89,Couveuse Potentiel,,contact@couveusepotentiel.com,03 85 48 74 18,,,T,
3.551932,47.797768,8 Avenue Delacroix,89000,AUXERRE,89,D_89,Cyber Base Emploi - Maison de l'Emploi et de la Formation de l'Auxerrois,www.mdeauxerrois.com,fmille@mdeauxerrois.com,03 86 42 00 42,,,F-M,
3.564627,47.806545,,89000,AUXERRE,89,D_89,Handi Lab - EPNAK,,,,,,F,
3.587097,47.800922,4 rue Paul Doumer,89000,AUXERRE,89,D_89,Les Riverains,https://www.lesriverains.org/,,,,,C-F,
3.567285,47.792099,1 bis place de l'Arquebuse,89000,AUXERRE,89,D_89,Maison de la jeunesse Auxerre,mjauxerre.cyber-base.org,dfortrat@cyber-base.org,03 86 72 18 18,,,I,
3.550152,47.800568,1 avenue Rodin,89000,AUXERRE,89,D_89,Mission Locale de l'Auxerrois,,milo.auxerre@milobfc.fr,09 70 19 89 89,,,I,
3.569976,47.795663,9 place du Maréchal Leclerc,89000,AUXERRE,89,D_89,Numog,https://www.numog.com/,,03 86 42 77 45,,,F,
3.259420,48.161076,24  rue Haute,89100,GRON,89,D_89,EPN Maison familiale rurale du Sénonais,www.mfrgron.com,mfr.gron@mfrgron.com,03 86 64 82 82,,,M,
3.286467,48.198624,50 rue du Thenard,89100,SENS,89,D_89,FabLab Pixelibur,https://www.facebook.com/pg/FablabSens/,fablabsens@gmail.com,06 12 26 69 23,,,F,
3.275654,48.191487,29  rue de la Liberté,89100,SENS,89,D_89,Lycée polyvalent régional,www.nord-cotedor.net,0210047m@ac-dijon.fr,03 80 89 70 00,,,O,
3.308496,48.196380,6 rue Henri Sanglier,89100,SENS,89,D_89,Mission Locale du Sénonais,www.missionlocaledusenonais.com,milosenonais@milobfc.fr,03 86 95 11 84,,,I,
3.276234,48.190601,100  rue de la République,89100,SENS,89,D_89,Ville de Sens - Service Informatique,,informatique@mairie-sens.fr,03 86 95 67 25,,,I,
3.095570,47.887432,3  Route de Prunoy,89120,CHARNY,89,D_89,MFS Charny Orée de Puisaye,,mairie-chevillon.89@wanadoo.fr,,,,I,-MSAP-MFS
3.294344,47.736786,7 rue des Montagnes,89130,TOUCY,89,D_89,Bibliothèque municipale Toucy,,bm.toucy@wanadoo.fr,03 86 44 08 41,,,M,
3.260694,48.343793,18 rue de l'Hôtel de Ville,89140,SERGINES,89,D_89,MSAP Yonne Nord,,msap@ccyn.fr,,,,I,-MSAP
4.163566,47.775155,11 Place Clermont Tonnerre,89160,ANCY-LE-FRANC,89,D_89,MSAP Ancy le Franc,,Rsp.tanlay@letonnerroisenbourgogne.fr,,,,I,-MSAP
3.069992,47.642826,rue du Moulin de l'Arche,89170,SAINT-FARGEAU,89,D_89,MSAP Saint-Fargeau,,msap.saint-fargeau@laposte.fr,,,,I,-MSAP
3.557569,48.233735,1 B Place de la Liberté,89190,VILLENEUVE-L'ARCHEVÊQUE,89,D_89,MSAP Villeneuve l'Archevêque,,msap.villeneuve-l-archeveque@laposte.fr,,,,I,-MSAP
3.917856,47.486092,Avenue Pierre Vigoureux,89200,AVALLON,89,D_89,Maison de l'Image et des nouvelles technologies Avallon,www.maisonimage.org,m-d-image@wanadoo.fr,03 86 31 64 72,,,O,
3.907243,47.487707,55  grande rue A. Briand,89200,AVALLON,89,D_89,Mission Locale Rurale du Tonnerrois et de l'Avalonnais Avallon,www.la-place.org,milo.avallon@mlbourgogne.fr,03 86 34 47 40,,,I,
2.948545,47.700930,Place de la Libération,89220,BLENEAU,89,D_89,MSAP Bléneau,,msapbleneau@orange.fr,,,,I,-MSAP
3.682111,47.896287,rue de la Mairie,89230,VENOUSE,89,D_89,La Grange de Beauvais,https://www.helloasso.com/associations/association-grange-de-beauvais,,,,,F,
3.600869,47.902810,6 rue Gatelot,89250,SEIGNELAY,89,D_89,MSAP Seignelay,,msap@seignelay.fr,,,,I,-MSAP
3.759823,47.603363,1 rue du fossé au veau,89270,ARCY-SUR-CURE,89,D_89,MSAP Agence postale Arcy-sur-cure,,arcy.rsp@orange.fr,,,,I,-MSAP
3.680576,47.599156,18 rue Camelinat,89270,MAILLY-LA-VILLE,89,D_89,MSAP Mailly-la-Ville,,mville.rsp@orange.fr,,,,I,-MSAP
3.416310,47.977261,2 Rue des Ingles,89300,JOIGNY,89,D_89,Espace jeunes Cyber-base de Joigny,www.cyber-base.org,luc.leaute@cyber-base.org,03 86 91 43 31,,,M-I,
3.994644,47.694475,15 Promenade du Pré de l'Echelle,89310,NOYERS,89,D_89,MSAP Noyers,,msap.noyers@laposte.fr,,,,I,-MSAP
3.426606,48.167365,5 route du miroir,89320,LES VALLEES DE LA VANNE,89,D_89,MFS les Vallées de la Vanne,,msap@les-vallees-de-la-vanne.fr,03 73 74 95 86,,,I,-MSAP-MFS
3.313342,48.025796,25  rue Verdeau,89330,VILLEVALLIER,89,D_89,Maison Familiale Rurale du Jovinien,,mfr.villevallier@mfr.asso.fr,03 86 91 12 15,,,F-O,
3.063466,48.332378,,89340,VILLENEUVE-LA-GUYARD,89,D_89,MSAP du Sivom du Nord Senonais,,,,,,I,-MSAP
3.071567,47.779869,5 rue Arsène Duguyot,89350,CHAMPIGNELLES,89,D_89,MSAP Champignelles,,msap.champignelles@orange.fr,,,,I,-MSAP
3.524772,47.960738,25 rue Gabriel Cordier,89400,MIGENNES,89,D_89,Mission Locale du Migennois et du Jovinien,missionslocales-bfc.fr/mission-locale-migennois-jovinien/,milomigennoisjovinien@milobfc.fr,03 86 80 00 67,,,I,
4.085383,47.847308,1 rue Haute de Fossés,89430,TANLAY,89,D_89,MSAP Tanlay,,,,,,I,-MSAP
4.004362,47.585063,3 avenue du parc,89440,L'ISLE SUR SEREIN,89,D_89,MSAP L'isle sur Serein,,msap.l-isle-sur-serein@laposte.fr,,,,I,-MSAP
3.755074,47.480742,12 grande rue,89450,ASQUINS,89,D_89,Club informatique asquinois,,cia.asquins@wanadoo.fr,03 86 33 36 04,,,F,
3.690160,47.683260,Rue d'Orléans,89460,CRAVANT,89,D_89,MSAP Cravant,,cravant.rsp@orange.fr,,,,I,-MSAP
3.539770,47.526418,place de l'Hôtel de Ville,89480,COULANGES-SUR-YONNE,89,D_89,MSAP Coulanges sur Yonne,,msap.ccfvy@orange.fr,,,,I,-MSAP
3.195223,47.617932,1   Place Paultre des Ormes,89520,SAINT-SAUVEUR-EN-PUISAYE,89,D_89,MSAP Saint-Sauveur en Puisaye,,rspsaintsauveur@orange.fr,,,,I,-MSAP
3.718873,47.998821,7 rue de l'Ile de France,89600,SAINT FLORENTIN,89,D_89,Cyber Base Emploi Saint-Florentin,www.mdeauxerrois.com,sguerin@mdeauxerrois.com,03 86 56 26 57,,,M-I,
3.997640,47.368857,1 place de l'Eglise,89630,QUARRE-LES-TOMBES,89,D_89,MSAP Quarré-les-Tombes,,mairie-quarre@wanadoo.fr,,,,I,-MSAP
3.634247,47.531499,1 Place Aristide Briand,89660,CHÂTEL-CENSOIR,89,D_89,MSAP Châtel-Censoir,,msapchatelcensoir@orange.fr,,,,I,-MSAP
3.636625,47.596704,32 Rue Comtesse Mahaut,89660,MAILLY-LE-CHÂTEAU,89,D_89,MSAP Mailly le Château,,mlc89.rsp@orange.fr,,,,I,-MSAP
2.998647,48.202902,13 rue de Paris,89690,CHEROY,89,D_89,MFS Chéroy,,sylvie.chassanis@laposte.fr,,,,I,-MSAP
3.974495,47.857774,3 rue Claude Aillot,89700,TONNERRE,89,D_89,Mission Locale du Tonnerrois et de l'Avallonnais,mirta.com,milotonnerroisavallonnais@milobfc.fr,03 86 55 17 33,,,I,
3.974558,47.858071,2 avenue de la Gare - Immeuble Sémaphore,89700,TONNERRE,89,D_89,MSAP Tonnerre,,rsp@letonnerroisenbourgogne.fr,,,,I,-MSAP
3.799606,47.814028,7  bd docteur Tacussel,89800,CHABLIS,89,D_89,Centre communal d'action sociale Chablis,,mairie@chablis.net,03 86 42 84 81,,,I,
6.854932,47.637960,3 rue Jules Vallès,90000,BELFORT,90,D_90,Bureau Information Jeunesse de Belfort,http://www.jeunes-fc.com/,bij.belfort@laposte.net,03 84 90 11 11,,,I,
6.844077,47.642560,Rue Becquerel,90000,BELFORT,90,D_90,Innovation Crunch Lab,http://openlab.utbm.fr/,contact.crunchlab@utbm.fr,03 84 58 33 48,,,F,
6.843149,47.642246,3  rue Edouard Branly,90000,BELFORT,90,D_90,La Cinquième Dimension,http://www.la5d.fr/,,03 39 03 39 70,,,F,
6.857164,47.641017,53 Faubourg des Ancêtres,90000,BELFORT,90,D_90,Les Médianautes,http://www.lesmedianautes.com/,les.medianautes@laposte.net,03 84 22 63 21,,,T,
6.843149,47.642246,3  rue Edouard Branly,90000,BELFORT,90,D_90,L'Usine,http://www.lusineabelfort.fr,cooperer@lusineabelfort.fr,03 39 03 39 70,,,F,
6.844210,47.634201,12 place de l'Europe,90020,BELFORT,90,D_90,Mission Locale du territoire de Belfort,mission-locale90.fr,miloterritoiredebelfort@milobfc.fr,03 84 90 40 10,,,I,
6.963542,47.700048,Association AILE Club informatique Ecole élémentaire 21  rue Principale,90110,SAINT GERMAIN LE CHATELET,90,D_90,A.I.L.E. - club informatique,,info.stgermainchatel@free.fr,03 84 23 09 80,,,F,
6.917253,47.564492,1 rue de la Varonne,90140,BOUROGNE,90,D_90,Espace Multimédia Gantner,http://www.espacemultimediagantner.cg90.net/,info@espacemultimediagantner.cg90.net,03 84 23 59 72,,,M,
6.821007,47.745098,Place des Commandos d'Afrique,90200,GIROMAGNY,90,D_90,Point Information Jeunesse de Giromagny,http://www.csgiro.fr.st/,stf.gui@wanadoo.fr,03 84 29 03 90,,,I,
3.149089,46.869252,D907,58470,MAGNY-COURS,58,D_58,Agropôle du Marault,https://www.facebook.com/agropoledumarault/?rf=142659843033336,agropoledumarault@gmail.com,03 86 21 08 60,,,F,
6.039008,46.706329,1  route d'Arsure,39150,BIEF-DES-MAISONS,39,D_39,Mairie de Bief des Maisons,,,,,,I,APTIC
4.358933,46.674540,9A  rue de Saint Eloi,71300,MONTCEAU LES MINES,71,D_71,APOR Formation,http://www.apor-formation.fr/,apor.formation@gmail.com,03 85 58 71 72,,,O,APTIC
4.913048,46.561661,10  rue Désiré Mathivet,71700,TOURNUS,71,D_71,Chez ta sœur,https://www.facebook.com/cheztasoeurtournus,cheztasoeur@outlook.com,,,,F,