lon,lat,code_postal,ville,departement,nom_structure,adresse,url_lieu,source,url_illustration,code_access,code_label,code_accomp
5.030519,47.316035,21000,DIJON,21,Accueil général de la ville et du CCAS de Dijon,11  rue de l'Hôpital,,Réseau ville de Dijon,,,,
5.073953,47.310202,21000,DIJON,21,Atheneum. Centre culturel universitaire,Atheneum. Centre culturel universitaire ,,,,,,
5.041585,47.319187,21000,DIJON,21,Bibliothèque jeunesse,7 rue de l'école de droit,,Réseau ville de Dijon,,,,
5.043503,47.321138,21000,DIJON,21,Bibliothèque La Nef,1 place du théâtre,,Réseau ville de Dijon,,,,
5.047603,47.340637,21000,DIJON,21,Bibliothèque Maladière,21 rue Balzac,,Réseau ville de Dijon,,,,
5.057337,47.307995,21000,DIJON,21,Bibliothèque Mansart,2 boulevard Mansart,,Réseau ville de Dijon,,,,
5.043198,47.319228,21000,DIJON,21,Bibliothèque Patrimoniale et d'études,3 rue de l'école de droit,,Réseau ville de Dijon,,,,
5.042764,47.325482,21000,DIJON,21,CCAS / Maison des seniors,Rue Mère Javouhey,,Réseau ville de Dijon,,,,
5.056111,47.301346,21000,DIJON,21,CCAS / Résidence Abrioux,26 rue du Commandant Abrioux,,Réseau ville de Dijon,,,,
5.030519,47.316035,21000,DIJON,21,"CCAS / Service des interventions sociales
",11 rue de l'hôpital,,Réseau ville de Dijon,,,,
5.069047,47.32968,21000,DIJON,21,Centre multimédia des grésilles,14  rue Camille Claudel,,Réseau ville de Dijon,,,,
5.063669,47.331768,21000,DIJON,21,Centre social des Grésilles,3-5 rue Jean XXIII,,Réseau ville de Dijon,,,,
5.035282,47.326441,21000,DIJON,21,Cercle Laïque Dijonnais,5  rue des fleurs,,Réseau ville de Dijon,,,,
5.049432,47.327347,21000,DIJON,21,eb-Lab Co-working,eb-Lab Co-working ,,,,,,
5.042991,47.350616,21000,DIJON,21,Espace Baudelaire,27  avenue Charles Baudelaire,,Réseau ville de Dijon,,,,
5.050782,47.328591,21000,DIJON,21,Espace Numérique Professionnel - CCI21,Espace Numérique Professionnel - CCI21 ,,,,,,
5.031579,47.315282,21000,DIJON,21,Kelle Fabrik,2  rue des Corroyeurs,https://kellefabrik.org/,,,,,
5.068101,47.332724,21000,DIJON,21,La Coursive Boutaric,33 place Galilée,https://www.la-coursive.fr/,,,,,
5.008154,47.319111,21000,DIJON,21,La Maison-Phare,2 allée de Grenoble,,Réseau ville de Dijon,,,,
5.040214,47.323159,21000,DIJON,21,L'Abscisse,6  impasse Quentin,https://fablab.coagul.org/Accueil,,,,,
5.041164,47.301142,21000,DIJON,21,Le Tempo,21  rue Maurice Ravel,,Réseau ville de Dijon,,,,
5.038086,47.322238,21000,DIJON,21,Le Village by CA Champagne-Bourgogne,67 rue des Godrans,https://www.levillagebyca.com/fr/node/14699,,,,,
5.078323,47.315035,21000,DIJON,21,Les Docks Numériques,64E  rue Sully,https://www.lesdocks.net/,,,,,
5.052016,47.350673,21000,DIJON,21,Mairie de quartier Toison d'or,10 bis place Granville,,Réseau ville de Dijon,,,,
5.065462,47.331255,21000,DIJON,21,Mairie de quartier des Grésilles,6 avenue des Grésilles,,Réseau ville de Dijon,,,,
5.003103,47.319288,21000,DIJON,21,Mairie de quartier Fontaine d'Ouche,13 place de la fontaine d'ouche,,Réseau ville de Dijon,,,,
5.057337,47.307995,21000,DIJON,21,Mairie de quartier Mansart,2 boulevard Mansart,,Réseau ville de Dijon,,,,
5.069047,47.32968,21000,DIJON,21,Médiathèque Champollion,14 rue Camille Claudel,,Réseau ville de Dijon,,,,
5.024485,47.314058,21000,DIJON,21,Médiathèque Port du canal,Place des Mariniers,,Réseau ville de Dijon,,,,
5.037009,47.324066,21000,DIJON,21,Mission Locale de l'arrondissement de Dijon,8 rue du Temple,mldijon.asso.fr,,,,,
5.047603,47.340637,21000,DIJON,21,MJC-Centre social Balzac-Maladière,21-25 rue Balzac,,Réseau ville de Dijon,,,,
5.015599,47.308963,21000,DIJON,21,MJC-Centre social des Bourroches,31 boulevard Eugène Fyot,,Réseau ville de Dijon,,,,
5.037763,47.331512,21000,DIJON,21,MJC-Centre social Montchapet,1 ter rue de Beaune,,Réseau ville de Dijon,,,,
5.049559,47.364205,21000,DIJON,21,Onlineformapro,38 Avenue Françoise Giroud,,,,,,
5.031579,47.315282,21000,DIJON,21,PANDA 1er mai,2  rue des Corroyeurs,,PANDA,,,,
5.015599,47.308963,21000,DIJON,21,PANDA Bourroches,31 boulevard Eugène Fyot,,PANDA,,,,
5.039781,47.308806,21000,DIJON,21,PANDA Chevreul,6  rue Joseph Milsand,,PANDA,,,,
5.008154,47.319111,21000,DIJON,21,PANDA Fontaine d'Ouche,2 allée de Grenoble,,PANDA,,,,
5.069047,47.32968,21000,DIJON,21,PANDA Grésilles,14  rue Camille Claudel,,PANDA,,,,
5.025971,47.320367,21000,DIJON,21,PANDA Jardin des Sciences,14 rue Jehan de Marville,,PANDA,,,,
5.008154,47.319111,21000,DIJON,21,PANDA Lab - Maison Phare MJC,2  allée de Grenoble,https://lamaisonphare.fr/,PANDA,,,,
5.042991,47.350616,21000,DIJON,21,PANDA Lab Baudelaire,25 avenue Charles Baudelaire,,PANDA,,,,
5.032554,47.333696,21000,DIJON,21,PANDA Montchapet,2H  rue Darius Milhaud,,PANDA,,,,
5.068201,47.312553,21000,DIJON,21,PANDA Université,Avenue Alain Savary,,PANDA,,,,
5.036812,47.322066,21000,DIJON,21,Quatre Quarts,7bis  rue du Chapeau Rouge,https://quatrequarts.fr/,,,,,
5.036269,47.324365,21000,DIJON,21,Startway Dijon,15 boulevard de Brosse,https://www.start-way.com/project/coworking-dijon-centre/,,,,,
5.145546,47.255535,21110,FAUVERNEY,21,bibliothèque municipale,bibliothèque municipale ,,,,,,
5.219921,47.24347,21110,GENLIS,21,Espace Coluche. Service Enfance Jeunesse,Espace Coluche. Service Enfance Jeunesse ,,,,,,
5.171291,47.274087,21110,FAUVERNEY,21,Point Internet Fauverney,Point Internet Fauverney ,,,,,,
5.115722,47.522443,21120,IS-SUR-TILLE,21,Espace Numérique Côte-d'Or d'Is-sur-Tille,1 avenue Carnot,,Espace numérique Côte-d'Or,,,,
5.112966,47.521601,21120,IS-SUR-TILLE,21,MSAP Is-sur-Tille,20 place du Général Leclerc,,,,,,
5.025536,47.339232,21121,FONTAINE-LES-DIJON,21,Atelier D’calés,5  rue des ponnières,https://atelier-d-cales.jimdofree.com/,,,,,
5.388193,47.193029,21130,AUXONNE,21,Espace Numérique Côte-d'Or d'Auxonne,2 rue de la paix,,Espace numérique Côte-d'Or,,,,
4.327967,47.524822,21140,MILLERY,21,COCwork,Ancien château de Chevigny,http://www.cocwork.wordpress.com,,,,,
4.346018,47.493786,21140,SEMUR-EN-AUXOIS,21,Espace Numérique Côte-d'Or de Semur-en-Auxois,1 avenue Pasteur,,Espace numérique Côte-d'Or,,,,
4.335442,47.495082,21140,SEMUR-EN-AUXOIS,21,Lab'Aux,43  rue de Vignes,https://www.labaux.org/,,,,,
4.332323,47.493069,21140,SEMUR EN AUXOIS,21,Maison familiale rurale,Maison familiale rurale ,,,,,,
4.346018,47.493786,21140,SEMUR-EN-AUXOIS,21,MSAP Semur-en-Auxois,1  avenue Pasteur,,,,,,
4.461108,47.540038,21150,VENAREY-LES-LAUMES,21,Espace Numérique Côte-d'Or de Venarey-les-Laumes,Avenue de Dijon,,Espace numérique Côte-d'Or,,,,
4.447884,47.542374,21150,VENAREY-LES-LAUMES,21,MSAP du Pays d'Alésia et de la Seine,18 avenue Jean-Jaurès,,,,,,
5.001884,47.281478,21160,MARSANNAY LA COTE,21,adamm,18 avenue Gaston Roupnel,,,,,,
5.002586,47.278383,21160,MARSANNAY LA COTE,21,Bibliothèque de Marsannay-la-Côte,Place Schweich,,,,,,
4.979111,47.260689,21160,COUCHEY,21,Espace multimédia de Couchey,Espace multimédia de Couchey ,,,,,,
4.830892,47.025661,21200,BEAUNE,21,Espace Numérique Côte-d'Or de Beaune,8 avenue du Parc,,Espace numérique Côte-d'Or,,,,
4.835216,47.023306,21200,BEAUNE,21,FabLab Beaune,8 rue du Collège,http://fablab-beaune.com/,,,,,
4.834442,47.031842,21200,BEAUNE,21,Mission Locale rurale de Beaune,6 bis avenue Guigone de Salins,missionlocalebeaune.fr,,,,,
4.229661,47.278252,21210,SAULIEU,21,Centre Numérique de la Communauté de communes de Saulieu,Centre Numérique de la Communauté de communes de Saulieu ,,,,,,
4.229661,47.278252,21210,SAULIEU,21,Espace Numérique Côte-d'Or de Saulieu,5 rue de la Tour des Fossés,,Espace numérique Côte-d'Or,,,,
4.229661,47.278252,21210,SAULIEU,21,MSAP Saulieu,5  rue tour des Fossés,,,,,,
4.992062,47.227698,21220,GEVREY-CHAMBERTIN,21,Espace Numérique Côte-d'Or de Gevrey-Chambertin,8 avenue Nierstein,,Espace numérique Côte-d'Or,,,,
4.49111,47.13087,21230,ARNAY LE DUC,21,Centre social et socioculturel du Pays d'Arnay,3 rue de la Gare,,,,,,
4.49111,47.13087,21230,ARNAY LE DUC,21,MFS Arnay-le-Duc - Espace Numérique Côte d'Or,3 rue de la Gare,,Espace numérique Côte-d'Or,,,,
4.996527,47.339344,21240,TALANT,21,Bibliothèque multimédia Henri Vincenot,Bibliothèque multimédia Henri Vincenot ,,,,,,
5.146558,46.999952,21250,SEURRE,21,MSAP Seurre,22 Rue de la République,,,,,,
5.184421,47.584827,21260,SELONGEY,21,Atelier culinaire du Groupe SEB,,,,,,,
5.408484,47.314203,21270,PONTAILLER-SUR-SAÖNE,21,MFS Pontailler sur Saône - Espace public numérique,1 rue des Saucis,,Espace numérique Côte-d'Or,,,,
4.79241,47.8144,21290,LEUGLAY,21,Espace Numérique Côte-d'Or de Leuglay,Ruelle de la Ferme,,Espace numérique Côte-d'Or,,,,
4.862747,47.780251,21290,RECEY-SUR-OURCE,21,MSAP Recey-sur-Ource, Place de Silenrieux,,,,,,
5.011615,47.298943,21300,CHENOVE,21,EPN L@ Boussole,EPN L@ Boussole ,,,,,,
5.00864,47.289688,21300,CHENOVE,21,MJC Chenôve, 7 rue de Longvic,,,,,,
5.315179,47.397308,21310,MIREBEAU-SUR-BEZE,21,MFS Mirebeau-sur-Bèze,6bis  place du Général Viard,,,,,,
4.55769,47.262363,21320,POUILLY-EN-AUXOIS,21,MSAP Pouilly-en-Auxois,Espace Jean-Claude Patriarche,,,,,,
4.364692,47.843002,21330,LAIGNES,21,Espace Numérique Côte-d'Or de Laignes,Place Victor Gat,,Espace numérique Côte-d'Or,,,,
4.630319,46.951154,21340,NOLAY,21,MSAP Nolay,1 Place de l'Hôtel de Ville,,,,,,
4.5395718,47.3988411,21350,VITTEAUX,21,Espace Numérique Côte-d'Or de Vitteaux,19 rue de l'Hôtel de Ville,,Espace numérique Côte-d'Or,,,,
4.664591,47.107867,21360,BLIGNY-SUR-OUCHE,21,MSAP Espace Numérique Côte-d'Or de Bligny-sur-Ouche,4 allée des Cordiers,,Espace numérique Côte-d'Or,,,,
5.052385,47.430357,21380,SAVIGNY LE SEC,21,Espace Savinus,Espace Savinus ,,,,,,
4.306252,47.388744,21390,PRECY-SOUS-THIL,21,Espace Numérique Côte-d'Or de Précy-sous-Thil,6 rue du Serein,,Espace numérique Côte-d'Or,,,,
4.5748942,47.8638309,21400,CHÂTILLON-SUR-SEINE,21,Espace Numérique Côte-d'Or de Châtillon-sur-Seine,14bis rue de la Libération,,Espace numérique Côte-d'Or,,,,
4.574407,47.858829,21400,CHÂTILLON-SUR-SEINE,21,Mission Locale des Marches de Bourgogne - Arrondissement de Montbard,1 rue Ernest Humblot,missionlocalemarchesdebourgogne.com,,,,,
4.575485,47.850467,21400,CHÂTILLON-SUR-SEINE,21,MSAP Pays Châtillonnais,11 rue Albert Camus,,,,,,
4.859336,47.311605,21410,FLEUREY-SUR-OUCHE,21,MSAP Fleurey-sur-Ouche,1 Rue du Sophora,,,,,,
4.818482,47.06349,21420,SAVIGNY-LES-BEAUNE,21,FabLab des Vignes,1  rue des Cigales,,,,,,
4.28132,47.204873,21430,LIERNAIS,21,Maison Familiale Rurale Le Dueg,Maison Familiale Rurale Le Dueg ,,,,,,
4.788624,47.439951,21440,SAINT-SEINE-L'ABBAYE,21,Espace Numérique Côte-d'Or de Saint-Seine-l'Abbaye,Rue Sonnois,,Espace numérique Côte-d'Or,,,,
4.647634,47.600626,21450,BAIGNEAUX-LES-JUIFS,21,Espace Numérique Côte-d'Or de Baigneux-les-Juifs,Rue de Quemigny,,Espace numérique Côte-d'Or,,,,
5.062149,47.284881,21600,LONGVIC,21,Maison Jules Verne,Allée de la mairie,,,,,,
5.061143,47.285342,21600,LONGVIC,21,Médiathèque Michel Etiévant,Mairie de Longvic - Allée de la Mairie - BP 77,,,,,,
4.975178,47.127476,21700,AGENCOURT,21,Maison Familiale Rurale d'Agencourt,Maison Familiale Rurale d'Agencourt ,,,,,,
5.117356,47.315073,21800,QUETIGNY,21,Maison Familiale Rurale de Quétigny,Maison Familiale Rurale de Quétigny ,,,,,,
5.143954,47.302475,21800,CHEVIGNY ST SAUVEUR,21,Point Information Jeunesse - EPN Centre Pierre Perret,Point Information Jeunesse - EPN Centre Pierre Perret ,,,,,,
6.0397,47.231,25000,BESANCON,25,3615 Señor,8 avenue du Chardonnet,http://3615senor.org,,,,,
6.02077,47.2421,25000,BESANCON,25,52 Battant,52 rue Battant,http://www.52battant.fr,,,,,
6.02968,47.2349,25000,BESANCON,25,AC agir ensemble contre le chômage,2 rue Victor Hugo,,,,,,
5.99569,47.2271,25000,BESANCON,25,CRIJ Franche-Comté,,,,,,,
5.97217,47.218,25000,BESANCON,25,DigiFab,4 Avenue du Parc,http://digifab.fr/,,,,,
5.9997,47.2611,25000,BESANCON,25,EPN Battant,,,,,,,
5.99569,47.2271,25000,BESANCON,25,EPN Centre ville,27  rue de la République,,,,,,
6.05351,47.2494,25000,BESANCON,25,EPN Clairs-soleils,,,,,,,
6.05452,47.2547,25000,BESANCON,25,EPN Grette,,,,,,,
6.00024,47.2473,25000,BESANCON,25,EPN Montrapon,1  place de Coubertin,,,,,,
5.96744,47.2213,25000,BESANCON,25,EPN Planoise,13  avenue Ile de France,,,,,,
5.96626,47.2206,25000,BESANCON,25,Espace IO,19 rue de la République,https://espaces.io/,,,,,
5.97359,47.2185,25000,BESANCON,25,FabLab Planoise,10  rue Picasso,http://epn.besancon.fr/?location=fablab-planoise,,,,,
6.0075,47.242,25000,BESANCON,25,Frenchmakers,17  rue Xavier Marmier,http://fablabbesancon.frenchmakers.com/#!/,,,,,
5.9499,47.211,25000,BESANCON,25,iBureau Bisontin,4 rue Eugène Savoye,http://www.ibureaubisontin.com,,,,,
6.00714,47.2419,25000,BESANCON,25,La Pépinière APEFC,La Pépinière APEFC ,,,,,,
5.9769,47.2209,25000,BESANCON,25,L'atome,12 rue de France-Comté,https://besancon-coworking.fr/,,,,,
5.97366,47.2193,25000,BESANCON,25,MFS Planoise,7-9 rue Picasso,,,,,,
6.01794,47.2457,25000,BESANCON,25,Mission Locale du Bassin d'Emploi de Besançon,10C rue Midol,missionlocale-besancon.fr,,,,,
5.973622,47.219166,25000,BESANCON,25,Onlineformapro,10 rue Pablo Picasso,,,,,,
6.052119,47.264612,25000,BESANCON,25,Onlineformapro,2b chemin de Palente,,,,,,
6.361392,47.351713,25110,BAUME LES DAMES,25,Horizon Jeunes,Horizon Jeunes ,,,,,,
6.36156,47.352575,25110,BAUME LES DAMES,25,MFS Doubs Baumois,3 Place de la République,,,,,,
6.361227,47.352628,25110,BAUME LES DAMES,25,MSAP Objectif Emploi Baume-les-Dames,2 B place du Général de Gaulle,,,,,,
5.93197,47.2562,25115,POUILLEY LES VIGNES,25,Agence Crédit Agricole Pouilley les Vignes,Rue Emagny,https://www.ca-franchecomte.fr,Réseau Crédit Agricole Franche-Comté,,,,
6.669811,47.060345,25130,VILLERS LE LAC,25,MJC de Villers-le-Lac,MJC de Villers-le-Lac ,,,,,,
6.770036,47.382306,25150,PONT DE ROIDE,25,Agence Crédit Agricole Pont de Roide,21 rue de Besancon,https://www.ca-franchecomte.fr,Réseau Crédit Agricole Franche-Comté,,,,
6.812826,47.317628,25190,SAINT-HIPPOLYTE,25,MSAP Saint-Hippolyte,Esplanade des Fêtes,,,,,,
6.813326,47.317911,25190,SAINT HIPPOLYTE,25,Point multimédia de Saint Hippolyte,,,,,,,
6.800682,47.51081,25200,MONTBELIARD,25,Bureau Information Jeunesse de Montbéliard,,,,,,,
6.804307,47.532991,25200,BETHONCOURT,25,Centre social et culturel de Bethoncourt,Centre social et culturel de Bethoncourt ,,,,,,
6.811344,47.518686,25200,MONTBELIARD,25,Cyberespace Léo Lagrange,,,,,,,
6.800682,47.51081,25200,MONTBELIARD,25,Espace Netpublic,,,,,,,
6.811793,47.536962,25200,BETHONCOURT,25,Espace Relais du CSC,Espace Relais du CSC ,,,,,,
6.800682,47.51081,25200,MONTBELIARD,25,IDEIS - Mission Locale du Pays de Monbéliard,2 avenue des alliés,ideis-asso.fr,,,,,
6.79436,47.504871,25200,MONTBELIARD,25,L'Atelier du pavillon des sciences,1 impasse de la presqu'ile,http://www.pavillon-sciences.com,,,,,
6.798311,47.499355,25200,MONTBELIARD,25,MFS Montbéliard Petite Hollande,12 rue Maurice Ravel,,,,,,
6.826627,47.526409,25200,GRAND CHARMONT,25,Point Information Jeunesse / PIFE,Point Information Jeunesse / PIFE ,,,,,,
6.86348,47.460281,25230,SELONCOURT,25,Centre Culturel la Stauberie,Centre Culturel la Stauberie ,,,,,,
6.895194,47.477867,25230,DASLE,25,Ecole primaire de Dasle,,,,,,,
6.860526,47.461841,25230,SELONCOURT,25,Maison pour tous,Maison pour tous ,,,,,,
6.192658,46.710385,25240,MOUTHE,25,MSAP Mouthe,1 Grande Rue,,,,,,
6.57825,47.450586,25250,L'ISLE-SUR-LE-DOUBS,25,MSAP Objectif Emploi L'Isle sur le Doubs,16 Rue de la Velle,,,,,,
6.11814,46.953824,25270,LEVIER,25,Agence crédit agricole Levier,11  place de Verdun,https://www.ca-franchecomte.fr,Réseau Crédit Agricole Franche-Comté,,,,
6.147346,47.105057,25290,ORNANS,25,Agence Credit Agricole Ornans,1 rue Saint Laurent,https://www.ca-franchecomte.fr,Réseau Crédit Agricole Franche-Comté,,,,
6.402337,46.834637,25300,LES FOURGS,25,d@vp@il,52 Grande Rue,,,,,,
6.354076,46.905997,25300,PONTARLIER,25,Mission Locale du Haut-Doubs,17 place des Bernardines,,,,,,
6.883728,47.442506,25310,HERIMONCOURT,25,Espace Multimedia,Espace Multimedia ,,,,,,
5.999905,46.977518,25330,NANS SOUS STE ANNE,25,L  'Observ@toire - Association ECHEL,6 grande rue,,,,,,
6.070628,47.037643,25330,AMANCEY,25,MFS Communauté de Communes Loue Lison,13 rue du Four,,,,,,
6.497182,47.39348,25340,CLERVAL,25,MSAP Objectif Emploi Clerval,Place de l'Hôtel de Ville,,,,,,
6.807205,47.452945,25350,MANDEURE,25,Espace jeune,Espace jeune ,,,,,,
6.236533,47.246334,25360,BOUCLANS,25,MSAP Objectif Emploi Bouclans,1 Place de la Poste,,,,,,
6.373972,46.77702,25370,LES HOPITAUX NEUFS,25,Agence crédit agricole les hopitaux neufs,7  place de la mairie,https://www.ca-franchecomte.fr,Réseau Crédit Agricole Franche-Comté,,,,
6.656181,47.25957,25380,BELLEHERBE,25,MSAP Communauté de communes du Pays de Sancey Belleherbe,1 Allée des Sapins,,,,,,
6.526425,47.131422,25390,ORCHAMPS-VENNES,25,MSAP Orchamps-Vennes,29 Grande rue,,,,,,
6.840732,47.479594,25400,AUDINCOURT,25,Agence Crédit Agrricole Audincourt,2 rue de seloncourt,https://www.ca-franchecomte.fr,Réseau Crédit Agricole Franche-Comté,,,,
6.857147,47.473836,25400,AUDINCOURT,25,Espace citoyen,Espace citoyen ,,,,,,
5.81072,47.1805,25410,SAINT VIT,25,Association Saint-Vit Informatique,Association Saint-Vit Informatique ,,,,,,
6.585854,47.298151,25430,SANCEY-LE-GRAND,25,MSAP Objectif Emploi Sancey,30 bis Rue du Maréchal de lattre de Tassigny,,,,,,
5.883626,47.103238,25440,QUINGEY,25,MSAP Quingey,15 Place d'Armes,,,,,,
6.896718,47.524083,25490,FESCHES LE CHATEL,25,Maison des associations,Maison des associations ,,,,,,
6.731509,47.479615,25550,BAVANS,25,Agence Crédit Agricole Bavans,4 grande rue ,https://www.ca-franchecomte.fr,Réseau Crédit Agricole Franche-Comté,,,,
6.736854,47.480477,25550,BAVANS,25,Association de Gestion - Maison pour tous,Association de Gestion - Maison pour tous ,,,,,,
6.736854,47.480477,25550,BAVANS,25,Association Gestion Actions Socio Culturelles,41  grande rue,,,,,,
6.165342,46.858267,25560,FRASNE,25,Agence  Credit Agricole Frasne ,26 grande rue,https://www.ca-franchecomte.fr,Réseau Crédit Agricole Franche-Comté,,,,
6.158342,46.857464,25560,FRASNE,25,MSAP Frasne,18 rue de la gare,,,,,,
6.336511,47.09857,25580,LES PREMIERS SAPINS,25,MFS Les Premiers Sapins,8 rue de la Scierie,,,,,,
6.837238,47.525316,25600,VIEUX CHARMONT,25,Ecole primaire,Ecole primaire ,,,,,,
6.830879,47.513896,25600,SOCHAUX,25,MFS Maison Numérique de Sochaux,4  rue de La Poste,,,,,,
6.831091,47.51342,25600,SOCHAUX,25,Pôle Multimédia,Pôle Multimédia ,,,,,,
5.77903,47.031451,25610,ARC ET SENANS,25,Institut Claude Nicolas Ledoux. C.C.R.,Institut Claude Nicolas Ledoux. C.C.R. ,,,,,,
6.16163,47.1972,25620,MAMIROLLE,25,MSAP Mamirolle,17 Grande Rue,,,,,,
6.77488,47.506512,25630,SAINTE SUZANNE,25,Club Miss,Club Miss ,,,,,,
6.238387,47.316352,25640,ROULANS,25,MSAP Objectif Emploi Roulans,Espace Culturel,,,,,,
6.480759,47.04673,25650,GILLEY,25,Agence Credit Agricole Gilley,4 rue de lattre de tassigny,https://www.ca-franchecomte.fr,Réseau Crédit Agricole Franche-Comté,,,,
6.483597,47.046697,25650,GILLEY,25,MSAP Gilley,2 Avenue Jean de Lattre de Tassigny,,,,,,
6.11784,47.2241,25660,SAONE,25,Agence Crédit Agricole Saone,1 rue de la croix de mission,https://www.ca-franchecomte.fr,Réseau Crédit Agricole Franche-Comté,,,,
6.11784,47.2241,25660,SAONE,25,Agence Crédit Agricole Saone,1 rue de la croix de mission,https://www.ca-franchecomte.fr,Réseau Crédit Agricole Franche-Comté,,,,
6.378162,47.480117,25680,CUSE-ET-ADRISANS,25,MSAP Objectif Emploi Rougemont,Zone d'activités du Pré Rond,,,,,,
6.782497,47.437388,25700,MATHAY,25,Ecole  primaire,Ecole  primaire ,,,,,,
6.836789,47.462367,25700,VALENTIGNEY,25,Maison des Jeunes et de la Culture,Maison des Jeunes et de la Culture ,,,,,,
6.658207,47.521728,25750,ARCEY,25,MSAP Arcey (Bureau de Poste),29 rue de la 5ème Division Blindée,,,,,,
6.345019,47.147983,25800,VALDAHON,25,MFS Maison des Services de Valdahon,5 Place du Général de Gaulle,,,,,,
6.0113158,47.3276463,25870,DEVECEY,25,Agence Crédit Agricole Devecey,4A route de Bonnay,https://www.ca-franchecomte.fr,Réseau Crédit Agricole Franche-Comté,,,,
6.012,47.3272,25870,BONNAY,25,EPN Intercommunal de la dame blanche,,,,,,,
5.559639,46.674247,39000,LONS LE SAUNIER,39,ANPE Lons le Saunier,19  Place de Verdun,http://anpe.fr/,,,,,
5.571603,46.677955,39000,LONS LE SAUNIER,39,espace Cyber-base emploi Lons le Saunier,1000  rue des Gentianes,http://lons-le-saunier.cyber-base.org/,,,,,
5.554027,46.676099,39000,LONS LE SAUNIER,39,Info Jeunesse Jura,17 Place Perraud,http://ijlonslesaunier.jeunes-fc.com/,,,,,
5.553933,46.668589,39000,LONS LE SAUNIER,39,Lédanova,2 rue de Montaigu,https://www.facebook.com/ledonova/,,,,,
5.571603,46.677955,39000,LONS LE SAUNIER,39,Mission Locale Sud Jura,1000 rue des Gentianes,missionlocalesudjura.org,,,,,
5.571681,46.677747,39003,LONS LE SAUNIER,39,Association Maison commune,1025 rue des gentianes,,,,,,
5.498227,47.084708,39100,DOLE,39,Le V  Fourmilière des Savoir-Faire,31 rue Julien Feuvrier,http://www.projet-v.fr,,,,,
5.466198,47.071416,39100,DOLE,39,Mission Locale Dole-Revermont,24 place nationale,missionlocale-dolerevermont.fr,,,,,
5.498227,47.084708,39100,DOLE,39,Savoirs et formation,31  rue Julien Feuvrier,,,,,,
5.861152,46.95238,39110,SALINS-LES-BAINS,39,MFS Salins-les-Bains,Zone Artisanale Les Mélincols,,,,,,
5.407953,46.968329,39120,CHAUSSIN,39,MSAP de la Plaine Jurassienne,3 place du collège,,,,,,
5.451784,46.802739,39140,COMMENAILLES,39,FabLab Atelier Made in iKi,5  place du général Michelin,http://madeiniki.org,,,,,
5.453529,46.744635,39140,BLETTERANS,39,MSAP Bletterans,3 Place Orion,,,,,,
5.461255,46.748906,39140,BLETTERANS,39,Point Information Jeunesse Bletterans,12 place de la gare,http://www.jeunes-fc.com/,,,,,
5.342488,46.43766,39160,SAINT AMOUR,39,EPN Médiathèque du Pays de St-Amour,4 Avenue Lucien Febvre,,,,,,
5.803057,46.424006,39170,RAVILLOLES,39,Atelier des Savoir-Faire,1 grande rue,http://www.atelierdessavoirfaire.fr/,,,,,
5.438472,46.573164,39190,BEAUFORT,39,MFS Porte du Jura,10 Grande Rue,,,,,,
5.861259,46.401015,39200,SAINT CLAUDE,39,Bureau Information Jeunesse St Claude,19 rue du marché,http://www.jeunes-fc.com/,,,,,
5.868137,46.383615,39200,SAINT CLAUDE,39,Cyber Espace du Haut-Jura,rue Tomachon,http://www.cbe-haut-jura.com/,,,,,
6.136538,46.537883,39220,BOIS D'AMONT,39,MSAP Bois-d'Amont,194 rue des Couenneaux,,,,,,
5.566614,46.827911,39230,SELLIERES,39,MSAP Sellières,Rue Jean Moulin,,,,,,
5.566873,46.392864,39240,ARINTHOD,39,MFS Petite Montagne,3  place de la Charité,,,,,,
5.611445,46.521711,39270,ORGELET,39,La Fabrik,4 rue de l'église,http://lafabrik-jura.fr,,,,,
5.611852,46.520481,39270,ORGELET,39,MSAP de la Région d'Orgelet,4 chemin du quart,,,,,,
5.456,47.145657,39290,BIARNE,39,FabLab-Net-IKi,3 rue de l'église,http://www.fablab-net-iki.org,,,,,
5.909479,46.748612,39300,CHAMPAGNOLE,39,FabLab Champagnole,2 rue de l'égalité,http://www.fablab-champagnole.com/,,,,,
5.912854,46.744318,39300,CHAMPAGNOLE,39,Point Information Jeunesse Champagnole,place de l'amitié,http://www.jeunes-fc.com/,,,,,
5.45412,46.393877,39320,VAL SURAN,39,Association développement Aménagement,16  place de la Mairie,,,,,,
5.683581,47.205195,39350,GENDREY,39,Médiathèque Jura-Nord,9 rue Richebourg,,,,,,
5.70477,46.990905,39380,CHAMBLAY,39,Facto Habilis,11 rue des Enclos,,,,,,
5.668356,46.994091,39380,OUNANS,39,MFS Val d'amour,11 route de Salins,,,,,,
6.020593,46.522651,39400,MOREZ,39,La Co-Workerie,8 rue de l'industrie,https://www.facebook.com/La-Co-Workerie-2280130755563839/,,,,,
5.934819,46.462631,39400,LONGCHAUMOIS,39,Médiathèque intercommunale Arcade,51 grande rue,http://morez.cyber-base.org/,,,,,
6.025381,46.52745,39400,MOREZ,39,MSAP Morez,23 avenue de la Libération,,,,,,
6.021657,46.520987,39400,MOREZ,39,Point Information Jeunesse Morez,10 quai Jobez,http://www.jeunes-fc.com/,,,,,
5.77023,46.905441,39600,ARBOIS,39,Eco Logik Art,35  rue de Courcelles,https://www.facebook.com/pg/Ecologikart,,,,,
5.772358,46.902668,39600,ARBOIS,39,MFS Arbois,10 Rue de l'Hôtel de ville,,,,,,
5.657127,47.147111,39700,ORCHAMPS,39,MSAP Orchamps,6 Rue Neuve,,,,,,
5.597825,46.868209,39800,BERSAILLIN,39,c.la cle administrative,13 route de Colonne - LE VISENEY,,,,,,
5.70868,46.835902,39800,POLIGNY,39,Couveuse Objectif Création,57 grande rue,,,,,,
5.708425,46.834197,39800,POLIGNY,39,Point Information Jeunesse de Poligny,20 place des déportés,http://www.ij39.com/,,,,,
3.186744,46.983958,58000,NEVERS,58,Acteurs solidaires en marche, Rue Louis-Francis,,Nièvre médiation numérique,,,,
3.163685,46.991503,58000,NEVERS,58,Association Nevers Libre,27B Rue Saint Etienne,https://nevers-libre.org,Nièvre médiation numérique,,,,
3.182181,46.987077,58000,NEVERS,58,Bureau Information Jeunesse de la Nièvre,5 Allée de la Louée,,Nièvre médiation numérique,,,,
3.156926,46.998945,58000,NEVERS,58,CAF de Nevers,83 Rue des Chauvettes,,Nièvre médiation numérique,,,,
3.158352,46.986867,58000,NEVERS,58,CCAS de Nevers,5 Rue de la Basilique,,Nièvre médiation numérique,,,,
3.132797,46.987892,58000,NEVERS,58,Centre des finances publiques de Nevers,19 rue Camille-Baynac,,Nièvre médiation numérique,,,,
3.156862,46.985739,58000,NEVERS,58,Club Léo Lagrange,15 Rue Albert-Morlon,,Nièvre médiation numérique,,,,
3.152649,46.989419,58000,NEVERS,58,Conseil départemental de la Nièvre - Service d'accompagnement au numérique,14 bis rue Jeanne d'Arc,,,,,,
3.156936,46.994691,58000,NEVERS,58,CPAM Nevers,50 Rue Paul Vaillant Couturier,,Nièvre médiation numérique,,,,
3.159287,46.989411,58000,NEVERS,58,ilab Nièvre Numérique,,,,,,,
3.18934,46.980418,58000,NEVERS,58,Kiosque numérique de Nevers,Kiosque numérique de Nevers ,,,,,,
3.128253,46.986118,58000,NEVERS,58,La Boussole MILO,5 Rue de la Louée,,Nièvre médiation numérique,,,,
3.186523,46.983703,58000,NEVERS,58,Le Prado Association Pagode,1 Rue de la Passière,,Nièvre médiation numérique,,,,
3.145417,46.992214,58000,NEVERS,58,L'Inkub,rue du 13e de ligne,http://www.linkub.fr,,,,,
3.168047,46.994964,58000,NEVERS,58,Médiathèque Jean Jaurès,17 rue Jean Jaurès,http://mediatheque-agglo.nevers.fr/,Nièvre médiation numérique,,,,
3.182181,46.987077,58000,NEVERS,58,Mission Locale de Nevers - Sud Nivernais,5 allée de la Louée,missionlocale-nevers.fr,,,,,
3.143165,46.991958,58000,NEVERS,58,Onlineformapro,7 rue du 13ème de ligne,,,,,,
3.17496,46.994246,58000,NEVERS,58,Préfecture - Point d'Accueil Numérique,40 Rue de la Préfecture,,Nièvre médiation numérique,,,,
3.145417,46.992214,58000,NEVERS,58,RobotLab,rue du 13e de ligne,http://accessrobotique.fr/,,,,,
3.123688,46.986717,58000,NEVERS,58,Union départementale des Associations Familiales,47 Boulevard du Pré-Plantin,,Nièvre médiation numérique,,,,
3.657528,47.052947,58022,NEVERS,58,Couveuse Potentiel,Couveuse Potentiel ,,,,,,
3.931241,47.057507,58110,CHATILLON-EN-BAZOIS,58,Kiosque numérique de Chatillon en Bazois,Kiosque numérique de Chatillon en Bazois ,,,,,,
3.658447,47.056157,58110,CHÂTILLON-EN-BAZOIS,58,MFS Châtillon en Bazois,1bis rue de la picherotte,,Nièvre médiation numérique,,,,
3.822425,47.279286,58120,CHATEAU CHINON CAMPAGNE,58,Centre Social de Château - Chinon  Cyberespace,Centre Social de Château - Chinon  Cyberespace ,,,,,,
3.934114,47.062842,58120,CHATEAU CHINON,58,Kiosque numérique de Château Chinon,6 Place Notre Dame,,,,,,
3.934114,47.062842,58120,CHÂTEAU CHINON,58,MFS Maison de la Solidarité Château-Chinon,6 Place Notre Dame,,Nièvre médiation numérique,,,,
3.934114,47.062842,58120,CHÂTEAU CHINON,58,Mission Locale Château,6 Place Notre Dame,http://www.missionlocalenivernaismorvan.fr/,Nièvre médiation numérique,,,,
2.965153,47.281416,58140,LORMES,58,Cyber-base du Pays Nivernais Morvan,114 route d'Avallon,,,,,,
3.824312,47.298755,58140,LORMES,58,FabLab du Morvan,114 route d'Avallon,https://www.nivernaismorvan.net/les-fablabs-du-pays-nivernais-morvan-nievre/,,,,,
3.824312,47.298755,58140,LORMES,58,Kiosque numérique de Lormes,114 route d'Avallon,,,,,,
3.822352,47.290082,58140,LORMES,58,MFS Lormes,Rue Henri Bachelin,,Nièvre médiation numérique,,,,
3.824312,47.298755,58140,LORMES,58,Mission numérique du pays Nivernais morvan,114 Route d'Avallon,https://www.nivernaismorvan.net,Nièvre médiation numérique,,,,
2.953901,47.283696,58150,POUILLY-SUR-LOIRE,58,Centre social de Pouilly sur Loire - Promeneurs du net,5bis Place des Frères Mollet,https://www.centre-social-pouilly.fr,Nièvre médiation numérique,,,,
2.548969,48.943755,58150,POUILLY SUR LOIRE,58,Kiosque numérique de Pouilly sur Loire,Kiosque numérique de Pouilly sur Loire ,,,,,,
2.956327,47.283526,58150,POUILLY-SUR-LOIRE,58,MSAP Pouilly-sur-Loire,Rue Waldeck Rousseau,,Nièvre médiation numérique,,,,
3.264698,46.93134,58160,IMPHY,58,Centre social d'Imphy + kiosque numérique,1 Rue Paul Vaillant Couturier,,Nièvre médiation numérique,,,,
2.936466,47.424502,58170,LUZY,58,Centre social et culturel de Luzy,Centre social et culturel de Luzy ,,,,,,
3.970311,46.790619,58170,LUZY,58,FabLab de Luzy,Rue du Docteur Dollet,https://www.nivernaismorvan.net/les-fablabs-du-pays-nivernais-morvan-nievre/,,,,,
3.96471,46.787368,58170,LUZY,58,MFS Luzy,12 Avenue Marceau,,Nièvre médiation numérique,,,,
3.35221,46.715787,58190,DORNES,58,MSAP Dornes,55 Place de la Mairie,,Nièvre médiation numérique,,,,
2.925567,47.402558,58200,COSNE-SUR-LOIRE,58,Accorderie,2bis Rue du Général Binot,http://www.accorderie.fr/cosne,Nièvre médiation numérique,,,,
2.924985,47.413296,58200,COSNE-COURS-SUR-LOIRE,58,Association Familiale de Cosne (le Clos Saint-Jacques),10 Rue Charles Flocquet,,Nièvre médiation numérique,,,,
2.927773,47.398137,58200,COSNE-COURS-SUR-LOIRE,58,CAF - Cosne-Cours-sur-Loire,15 Rue du Berry,,Nièvre médiation numérique,,,,
2.917144,47.38269,58200,COSNE-COURS-SUR-LOIRE,58,Centre d'affaires CAMPUS,2 rue des Minotiers,https://www.ca-campus.com/,,,,,
2.929442,47.39784,58200,COSNE-COURS-SUR-LOIRE,58,E2C Nièvre - Cosne-Cours-sur-Loire, Rue Pierre et Marie Curie,http://e2c58-bourgogne.sioucs.net,Nièvre médiation numérique,,,,
2.91834,47.382654,58200,COSNE-COURS-SUR-LOIRE,58,GRETA 58 - Antenne de Cosne-Cours-sur-Loire,2 rue des Ardoisiers,,Nièvre médiation numérique,,,,
2.926676,47.407276,58200,COSNE COURS SUR LOIRE,58,Kiosque numérique de Cosne Cours sur Loire,Kiosque numérique de Cosne Cours sur Loire ,,,,,,
2.929188,47.418259,58200,COSNE-SUR-LOIRE,58,Médiathèque de Cosne,6 Rue des Forges,https://mediatheques-cclvn.bibenligne.fr/,Nièvre médiation numérique,,,,
2.926676,47.407276,58200,COSNE-SUR-LOIRE,58,Mission locale + Promeneurs du net,40 Rue des Rivières Saint-Agnan,https://fr-fr.facebook.com/Missionlocale.BourgogneNivernaise/,Nièvre médiation numérique,,,,
3.383671,47.359518,58200,COSNE COURS SUR LOIRE,58,Mission locale de Cosne Cours sur Loire,Mission locale de Cosne Cours sur Loire ,,,,,,
2.924925,47.396745,58200,COSNE-COURS-SUR-LOIRE,58,Pôle Emploi - Cosne-Cours-sur-Loire,45bis rue du Général Binot,,Nièvre médiation numérique,,,,
2.922222,47.412261,58200,COSNE-SUR-LOIRE,58,Sous-préfecture - Point d'accueil numérique,7bis Rue Eugène Pelletan,,Nièvre médiation numérique,,,,
2.924975,47.397126,58207,COSNE-COURS-SUR-LOIRE,58,CPAM - Agence de Cosne-Cours-sur-Loire,45 rue du Général Binot,,Nièvre médiation numérique,,,,
3.393437,47.407882,58210,VARZY,58,Cyber-base Varzy,Cyber-base Varzy ,,,,,,
3.393437,47.407882,58210,COURCELLES,58,Fédération de Libération du Multimédia Campagnard, Route des écoles,https://www.facebook.com/flmc58/,Nièvre médiation numérique,,,,
3.280579,47.368585,58210,MENOU,58,Mairie de Menou, Le Bourg,http://www.menou58.fr/,Nièvre médiation numérique,,,,
3.385824,47.356581,58210,VARZY,58,MFS Espace socio-culturel de Varzy,7 Rue Nicolas Colbert,,Nièvre médiation numérique,,,,
3.123736,47.368367,58210,VARZY,58,Télécentre de Varzy,Télécentre de Varzy ,,,,,,
4.026735,47.217176,58220,DONZY,58,Kiosque numérique de Donzy,Kiosque numérique de Donzy ,,,,,,
3.126331,47.371007,58220,DONZY,58,Médiathèque de Donzy,10 Rue d'Osmond,https://mediatheques-cclvn.bibenligne.fr/mediatheque-de-donzy http://www.bibliotheque-donzy.fr/search.php?action=Accueil,Nièvre médiation numérique,,,,
3.125918,47.373057,58220,DONZY,58,MFS Donzy,1 place de la Mairie,http://www.mairie-donzy.fr/telecentre,,,,,
3.118797,47.370621,58220,DONZY,58,MSAP Donzy,18 rue du Général Leclerc,,Nièvre médiation numérique,,,,
3.466752,46.890956,58230,MONTSAUCHE LES SETTONS,58,Kiosque numérique de Montsauche les Settons,Kiosque numérique de Montsauche les Settons ,,,,,,
3.991457,47.230163,58230,MONTSAUCHE-LES-SETTONS,58,MFS Montsauche les Settons,Place Marcel Mariller,,Nièvre médiation numérique,,,,
4.046302,47.209144,58230,MONTSAUCHE-LES-SETTONS,58,MSAP La Poste Montsauche-les-Settons,Place du 25 juin 1944,,,,,,
3.179103,46.734578,58240,CHANTENAY SAINT IMBERT,58,Bibliothèque de Chantenay St Imbert,20 Rue des Ecoles,https://www.ville-chantenay-saint-imbert.fr/bibliotheque-municipale,Nièvre médiation numérique,,,,
3.121975,46.794095,58240,SAINT-PIERRE-LE-MOÛTIER,58,MFS Saint-Pierre-le-Moûtier,35 avenue du 8 mai,,Nièvre médiation numérique,,,,
3.190219,46.72833,58240,CHANTENAY-SAINT-IMBERT,58,MSAP Chantenay-Saint-Imbert,Route de Dornes,,Nièvre médiation numérique,,,,
3.402931,47.017134,58260,LA MACHINE,58,Kiosque numérique de La Machine,Kiosque numérique de La Machine ,,,,,,
3.464459,46.888718,58260,LA MACHINE,58,MFS La Machine,3 Avenue de La République,,Nièvre médiation numérique,,,,
3.839072,46.976395,58270,SAINT BENIN D AZY,58,Cyber-base St-Benin d'Azy,Cyber-base St-Benin d'Azy ,,,,,,
3.393958,46.999398,58270,SAINT BENIN D'AZY,58,Médiathèque de St Benin d'Azy,2 rue Claude Montaron,http://www.saint-benin-dazy.fr/mediatheque,Nièvre médiation numérique,,,,
3.392872,46.999006,58270,SAINT-BENIN-D'AZY,58,MFS Centre socio-culturel des Amognes - St Benin d'Azy,1 place de la république,,Nièvre médiation numérique,,,,
3.809117,46.988058,58290,MOULINS-ENGILBERT,58,MFS Centre Social de Moulins-Engilbert,2 Rue de la Mission,,Nièvre médiation numérique,,,,
3.451116,46.828285,58290,MOULINS-ENGILBERT,58,Télécentre du Sud Morvan,Télécentre du Sud Morvan ,,,,,,
3.447678,46.828718,58300,DECIZE,58,Club informatique SLB Informatique,1 Route d'Avril,,Nièvre médiation numérique,,,,
3.660741,46.878758,58300,SOUGY SUR LOIRE,58,Cyber-base de Sougy,Cyber-base de Sougy ,,,,,,
3.399431,46.861568,58300,DECIZE,58,Kiosque numérique de Decize,Kiosque numérique de Decize ,,,,,,
3.073386,47.530573,58310,SAINT AMAND EN PUISAYE,58,Club Générations Mouvement de Saint-Amand-en-Puisaye,21 Grande rue,http://gem-saint-amand-en-puisaye.blog4ever.com,Nièvre médiation numérique,,,,
3.076759,47.529427,58310,SAINT AMAND EN PUISAYE,58,MSAP Saint-Amand-en-Puisaye,12 bis rue du Faubourg Neuf,,Nièvre médiation numérique,,,,
3.512185,47.103967,58330,SAINT-SAULGE,58,MFS Saint-Saulge,1  Place de la République,,Nièvre médiation numérique,,,,
3.352295,46.71604,58340,CERCY LA TOUR,58,Kiosque numérique de Cergy la Tour,Kiosque numérique de Cergy la Tour ,,,,,,
3.645593,46.861563,58340,CERCY-LA-TOUR,58,MFS Centre social de Fours,4 Rue François Mitterrand,www.centresocialfours.fr,Nièvre médiation numérique,,,,
3.840221,46.905193,58360,SAINT-HONORE-LES-BAINS,58,MSAP Saint-Honoré-Les-Bains,5 Rue Eugène Collin,,Nièvre médiation numérique,,,,
3.017599,47.180055,58390,DORNES,58,Bibliothèque Municipale de Dornes,Bibliothèque Municipale de Dornes ,,,,,,
3.516129,47.461615,58400,LA CHARITE SUR LOIRE,58,kiosque numérique de La Charité sur Loire,,,,,,,
3.020257,47.180233,58400,LA CHARITE SUR LOIRE,58,Mission locale Bourgogne Nivernaise,5 Rue Antoine Amiot,https://fr-fr.facebook.com/Missionlocale.BourgogneNivernaise/,Nièvre médiation numérique,,,,
3.254462,47.459291,58410,ENTRAINS SUR NOHAIN,58,Mairie d'Entrains sur Nohain,2 Place de l'hôtel de ville,http://www.entrains-sur-nohain.com/,Nièvre médiation numérique,,,,
3.490676,47.281471,58420,BRINON-SUR-BEUVRON,58,MFS Brinon sur Beuvron,9  rue du Commandant Guerreau,,Nièvre médiation numérique,,,,
2.881869,47.522318,58450,NEUVY SUR LOIRE,58,Association Familles Rurales, Rue Jean Jaurès,,Nièvre médiation numérique,,,,
2.882576,47.522698,58450,NEUVY SUR LOIRE,58,Médiathèque de Neuvy, Place Alexandrine Semence,https://mediatheques-cclvn.bibenligne.fr/mediatheque-de-neuvy-sur-loire,Nièvre médiation numérique,,,,
3.152511,46.883841,58470,MAGNY-COURS,58,MSAP Magny-Cours,Place de l'Eglise,,Nièvre médiation numérique,,,,
3.514908,47.460422,58500,CLAMECY,58,Fab'N'Lab de la Nièvre,12  rue de Druyes,https://www.facebook.com/fabnlab/,,,,,
3.515036,47.461028,58500,CLAMECY,58,Maison de la formation,6bis Rue Druyes,,Nièvre médiation numérique,,,,
3.333171,47.171884,58600,FOURCHAMBAULT,58,Kiosque numérique de Fourchambault,Kiosque numérique de Fourchambault ,,,,,,
3.084711,47.018815,58600,FOURCHAMBAULT,58,MFS Centre Social de Fourchambault,Avenue Jean Jaurès,,Nièvre médiation numérique,,,,
3.330071,47.176609,58700,PREMERY,58,Centre socioculturel Intercommunal Pierre Melot,10 Place de l'église,http://cpremery.fr/,Nièvre médiation numérique,,,,
3.684695,47.256476,58700,PREMERY,58,Kiosque numérique de Premery,Kiosque numérique de Premery ,,,,,,
3.332109,47.175158,58700,PREMERY,58,MSAP Prémery,26 cour du chateau,,Nièvre médiation numérique,,,,
3.683598,47.257471,58800,CORBIGNY,58,Association Pour l'Insertion et l'Acommpagnement Social (AGAI),9 rue des Arcées,,Nièvre médiation numérique,,,,
6.155145,47.620792,58800,CORBIGNY,58,Kiosque numérique de Corbigny,Kiosque numérique de Corbigny ,,,,,,
3.684002,47.257076,58800,CORBIGNY,58,MFS Maison de Pays Corbigny,3 Grande Rue,,Nièvre médiation numérique,,,,
6.155131,47.620657,70000,VESOUL,70,Centre d'Information Jeunesse de Vesoul,38 rue Paul Morel,http://www.ij70.com/,,,,,
6.155862,47.623096,70000,VESOUL,70,Cyber-Base de Vesoul,4  rue Alsace Lorraine,http://www.vesoul.fr/index.php?option=com_content&task=blogcategory&id=67&Itemid=151,,,,,
6.146591,47.619645,70000,VESOUL,70,Mission Locale du Bassin d'Emploi de Vesoul,4 rue André Maginot,milovesoul.org,,,,,
6.152081,47.637076,70000,VESOUL,70,Onlineformapro,19  rue du Praley  Espace de la Motte,,,,,,
6.154717,47.633509,70000,VESOUL,70,Virtualgames,Centre Commercial du Grand Monmarin Rue Edouard Belin,,,,,,
5.589776,47.445906,70100,GRAY,70,Bureau Information Jeunesse de Gray,60 Grande rue,,,,,,
5.5879403,47.4485373,70100,GRAY,70,Espace MultiMédia du Val de Gray,3  quai Mavia,,,,,,
5.584394,47.454959,70100,ARC LES GRAY,70,Mission Locale du Bassin Graylois,6 rue des Stades,missionslocales-bfc.fr/mission-locale-bassin-graylois/,,,,,
5.591977,47.43045,70100,GRAY,70,MSAP Gray,2 rue de Lorraine,,,,,,
5.590222,47.447873,70100,GRAY,70,Onlineformapro,6 rue Gambetta,,,,,,
5.590306,47.45028,70100,GRAY,70,Salle Multimédi@ de Gray,3  quai de l'Ecluse,,,,,,
6.428281,47.549418,70110,VILLERSEXEL,70,Espace Public Numérique de la Communauté de Communes du Pays de Villersexel,144 rue de la prairie,http://www.cc-pays-villersexel.fr/user/pages/contenu_php/salle.php,,,,,
6.432014,47.550792,70110,VILLERSEXEL,70,MSAP Villersexel,Place du Général de Gaulle,,,,,,
5.783542,47.625281,70120,LAVONCOURT,70,Amicale Cyber espace de Lavoncourt,Mairie de Lavoncourt,,,,,,
5.785663,47.626564,70120,LAVONCOURT,70,MFS Val Fleuri,12 rue du Tire Sachot,,,,,,
5.946111,47.487598,70130,FRETIGNEY-ET-VELLOREILLE,70,MSAP Fretigney et Velloreille,21 grande rue,,,,,,
5.559356,47.283404,70140,PESMES,70,MSAP Pesmes,Place des Tilleuls,,,,,,
5.769657,47.289935,70150,MARNAY,70,MSAP Marnay,Place du Roi de Rome,,,,,,
6.102624,47.766402,70160,FAVERNEY,70,MSAP Faverney - Terres de Saône,1 rue du Général Leclerc,,,,,,
6.037433,47.692627,70170,PORT SUR SAONE,70,CFPPA-APP de Port sur Saône,1  rue Pierre Bogé,,,,,,
6.068799,47.422404,70190,RIOZ,70,MFS Pays des 7 Rivières,Place du Souvenir Français,,,,,,
6.497352,47.686457,70200,LURE,70,Espace NetPublic CyberBase du Centre Social et Culturel de Lure,17  esplanade Charles de Gaulle,http://www.centre-social-lure.org/,,,,,
6.424572,47.735178,70200,QUERS,70,MFS de la Communauté de communes Triangle Vert,1 bis rue de l'Eglise,,,,,,
6.490451,47.686017,70200,LURE,70,Mission Locale de Lure / Luxeuil-les-Bains / Champagney,3 rue Parmentier,missionslocales-bfc.fr/mission-locale-llc/,,,,,
6.425182,47.73554,70200,QUERS,70,Points Numériques Franches Communes,2 rue de l'église,http://www.franches-communes.org/,,,,,
6.127047,47.884615,70210,MELINCOURT,70,Espace Public Les Belles Sources,Rue de la Cornée,,,,,,
6.411375,47.902285,70220,FOUGEROLLES,70,Cyber Val.SE de Fougerolles,familles rurale place de l'hotel de ville,,,,,,
6.353297,47.661652,70230,DAMPIERRE SUR LINOTTE,70,Espace Public Numérique de Dampierre sur Linotte,Espace Public Numérique de Dampierre sur Linotte ,,,,,,
6.345924,47.63562,70240,LIEVANS,70,Association animation jeunesse de Lievans,Mairie de Noroy Le Bourg,,,,,,
6.279902,47.695666,70240,SAULX,70,MSAP Saulx,Place du Grand Puits,,,,,,
6.633079,47.708294,70250,RONCHAMP,70,Cybercentre de Ronchamp - Médiathèque,rue du Tram,,,,,,
6.637199,47.69982,70250,RONCHAMP,70,Fab Lab la Filature 2.0,20b rue Paul Strauss,http://www.lafilaturederonchamp.fr,,,,,
6.579,47.753452,70270,MELISEY,70,Espace Public Numérique de la Communauté de communes de la Haute vallée de l'Ognon,11  Grande Rue,,,,,,
6.688703,47.70126,70290,CHAMPAGNEY,70,Cybercentre de Champagney,Médiathèque de Champagney  Grande rue,,,,,,
6.731319,47.717178,70290,PLANCHER BAS,70,Cybercentre de Plancher Bas - Médiathèque,Rue Louis Pergaud,,,,,,
6.685299,47.704804,70290,CHAMPAGNEY,70,MFS Rahin et Chérimont - Champagney,Place Charles de Gaulle,,,,,,
6.359512,47.818898,70300,LUXEUIL LES BAINS,70,Association Jeunes Espoirs de Luxeuil,rue salvador allende,,,,,,
6.379386,47.819424,70300,LUXEUIL LES BAINS,70,Bureau Information Jeunesse de Luxeuil les Bains,35 rue Carnot,,,,,,
6.383922,47.806381,70300,SAINT SAUVEUR,70,Centre Multimedia de St Sauveur,4  rue Just Pingand,,,,,,
6.364494,47.815603,70300,LUXEUIL LES BAINS,70,FabLab des 3 lapins,2 rue Lacépède,,,,,,
6.336716,47.936628,70320,AILLEVILLERS ET LYAUMONT,70,Cyber Val.SE d'Aillevillers et Lyaumont,bibliotheque le temps de lire place pierre Bolle 70320 Aillevillers,,,,,,
6.325523,47.890023,70320,CORBENAY,70,Cyber Val.SE de Corbenay,Bibliothèque salle d'asile  place de l'eglise,,,,,,
6.292208,47.885222,70320,CORBENAY,70,MFS/PIJ de la Haute Comté,57 rue des Ballastières,,,,,,
5.972356,47.665199,70360,SENNECEY-SUR-SAÔNE-SAINT-ALBIN,70,MSAP Sennecey-sur-Saône et Saint-Albin,1 avenue de Verdun,,,,,,
6.756919,47.572185,70400,HERICOURT,70,Hérilab,1 rue de la Tuilerie,http://www.cc-pays-hericourt.fr/rubrique.php?id=630,,,,,
6.756945,47.572184,70400,HERICOURT,70,Mission Locale d'Héricourt - Villersexel,11 rue de la tuilerie,,,,,,
6.720897,47.842509,70440,HAUT-DU-THEM-CHÂTEAU-LAMBERT,70,MSAP Haut du Them Château Lambert,3 rue de la vierge,,,,,,
5.841782,47.812036,70500,JUSSEY,70,MSAP Hauts du Val de Saône,Pré Jean Roche,,,,,,
5.51564,47.61471,70600,CHAMPLITTE,70,MSAP Champlitte,Rue de la République,,,,,,
5.84702,47.42,70700,BUCEY-Lès-GY,70,Fablab des Monts de Gy,9 chemin des Ecoliers,http://fablab-montsdegy.fr,,,,,
6.266073,47.885253,70800,SAINT LOUP SUR SEMOUSE,70,Centre Multimédia de St Loup sur Semouse,12 rue Henry Guy,,,,,,
6.335297,47.872919,70800,FONTAINE LES LUXEUIL,70,Cyber Val.SE de Fontaine les Luxeuil,bibliothèque le temps de lire Salle polyvalente,,,,,,
6.266073,47.885253,70800,SAINT LOUP SUR SEMOUSE,70,Cyber Val.SE de St Loup sur Semouse,,,,,,,
6.272287,47.886174,70800,SAINT-LOUP-SUR-SEMOUSE,70,Lab'Haut Comtois,3  rue de l'Abattoir,http://www.labhautcomtois.fr,,,,,
6.280088,47.885121,70800,SAINT LOUP SUR SEMOUSE,70,Point Information Jeunesse de St Loup sur Semouse,14 bis rue de la Viotte,,,,,,
4.832034,46.308346,71000,MÂCON,71,Association Départementale Information Jeunesse 71,,,,,,,
4.830644,46.302181,71000,MÂCON,71,Cave à Musique,,,,,,,
4.836376,46.309889,71000,MÂCON,71,Couveuse Potentiel,,,,,,,
4.837787,46.310361,71000,MÂCON,71,Le Cyberphare,,,,,,,
4.828139,46.304852,71000,Mâcon,71,Locow coworking,82 rue Victor Hugo,www.locow.fr,,,,,
4.837787,46.310361,71000,MÂCON,71,Mission Locale du Mâconnais,1000 Avenue Maréchal Lattre de Tassigny,missionlocale-macon.fr,,,,,
4.831782,46.304775,71000,MÂCON,71,Mon Assistant Numérique Mâcon ( Nicolas Numérique SAS),42 rue tourneloup  Centre d'affaires Tourneloup,,,,,,
46.3124,4.83889,71000,MACON,71,OPAC Saône et Loire,800 avenue Maréchal de Lattre de Tassigny,opac.fr,,,,,
4.835909,46.308788,71000,MÂCON,71,Point Cyber CCI de Mâcon-Charolles-Tournus,Point Cyber CCI de Mâcon-Charolles-Tournus ,,,,,,
4.852363,46.753763,71000,MÂCON,71,Trav'Ailleurs,Trav'Ailleurs ,,,,,,
46.78023,4.846354,71100,CHALON SUR SAONE,71,Caisse d'Allocations Familiales de Châlon-sur-Saône,15 Avenue Victor Hugo,,,,,,
46.779661,4.858338,71100,CHALON SUR SAONE,71,CCAS Chalon sur Saône,7 Quai de l'Hôpital,,,,,,
46.7832,4.85768,71100,CHALON SUR SAONE,71,Centre Interculturel Conseil Formation Médiation,7 rue de l'Ancien Collège,https://www.facebook.com/centreinterculturel.cicfm,,,,,
46.7842,4.85132,71100,CHALON SUR SAONE,71,Collectif Associatif Local Pour l'Inclusion Numérique (CALPIN),1 rue Gauthey,,,,,,
4.84655,46.776441,71100,CHALON SUR SAÔNE,71,Couveuse Potentiel,Couveuse Potentiel ,,,,,,
4.828612,46.770078,71100,CHALON SUR SAÔNE,71,Espace multimédia de Chalon sur Saône,Espace multimédia de Chalon sur Saône ,,,,,,
4.827097,46.780769,71100,LUX,71,Espace Multimédia de Lux,Espace Multimédia de Lux ,,,,,,
4.827097,46.780769,71100,SAINT REMY,71,Espace Multimédia de Saint-Rémy,Espace Multimédia de Saint-Rémy ,,,,,,
4.835546,46.788894,71100,CHALON SUR SAÔNE,71,FabLab Chalonnais,141  avenue Boucicaut,http://fablab-chalon.fr/,,,,,
4.827097,46.780769,71100,CHALON SUR SAÔNE,71,Info'Rom (CCAS),Info'Rom (CCAS) ,,,,,,
46.7832,4.84812,71100,CHALON SUR SAONE,71,Kiosque Multimédia de Châlon-sur-Saône,29 boulevard de la République,facebook.com/servicejeunessechalon/,,,,,
4.850121,46.778011,71100,CHALON SUR SAÔNE,71,La Raffinerie,Quai Saint-Cosme,https://urbidesk.com/space/9902,,,,,
46.770078,4.828612,71100,SAINT REMY,71,Médiathèque de St Rémy,4 bis Rue d'Ottweiler,http://lancre.saint-remy71.fr ,,,,,
46.753763,4.852363,71100,LUX,71,Médiathèque l'Arob@se,2 Rue Raymond Balay,http://larobase.opac3d.fr,,,,,
4.866845,46.797587,71100,CHALON SUR SAÔNE,71,Mission Locale du Châlonnais,4 rue Jules Ferry,missionlocaleduchalonnais.fr,,,,,
4.84655,46.776441,71100,CHALON SUR SAÔNE,71,Nicéphore Labs,34  quai de Saint-Cosme,http://nicephorelabs.fr,,,,,
46.777,4.84624,71100,CHALON SUR SAONE,71,PLIE du Grand Chalon - Sucrerie rouge,7 rue Georges Maugey,,,,,,
46.7923,4.84957,71100,CHALON SUR SAONE,71,SASTI BFC,74 avenue de Paris,https://www.facebook.com/SASTIBourgogne21,,,,,
46.7901,4.86306,71100,CHALON SUR SAONE,71,Savoirs Plus,18 rue Pierre Nugue,www.savoirs-plus.com,,,,,
46.7825,4.8537,71100,CHALON SUR SAONE,71,Sous-préfecture de Chalon-sur-Saône,28 rue du général Leclerc,www.saone-et-loire.gouv.fr,,,,,
4.067991,46.598402,71130,GUEUGNON,71,club informatique de Gueugnon,club informatique de Gueugnon ,,,,,,
4.059696,46.599447,71130,GUEUGNON,71,FabLabinox, Place de l'église,http://syntaxerreur2-0.fr/,,,,,
4.067991,46.598402,71130,GUEUGNON,71,Mission Locale du Charolais,47 rue de la Convention,,,,,,
3.761385,46.624406,71130,GUEUGNON,71,Point Information Jeunesse de Gueugnon,Point Information Jeunesse de Gueugnon ,,,,,,
4.059696,46.599447,71130,GUEUGNON,71,Syntaxe erreur 2.0,place de l'église (entrée quai de l'Europe),,,,,,
4.770933,46.849637,71140,BOURBON LANCY,71,Cyber espace de Bourbon Lancy,Cyber espace de Bourbon Lancy ,,,,,,
3.97905,46.481963,71150,FONTAINES,71,Espace Multimédia de Fontaines,Espace Multimédia de Fontaines ,,,,,,
4.74212,46.8743,71150,RULLY,71,Mon Assistant Numérique Chalon,1 rue Neuve,http://chalonsursaone.MonAssistant.Numerique.com,MonAssistantNumérique.com,,,,
3.987782,46.488576,71160,DIGOIN,71,Bibliothèque Municipale de Digoin,Bibliothèque Municipale de Digoin ,,,,,,
4.336669,46.207113,71160,DIGOIN,71,Espace Jeunesse de Digoin,Espace Jeunesse de Digoin ,,,,,,
4.344631,46.207637,71170,CHAUFFAILLES,71,MFS PIMMS de Chauffailles,Place de la Gare,,,,,,
4.43171,46.789884,71190,ETANG SUR ARROUX,71,Espace Information Jeunesse-CyberJ d'Etang sur Arroux,Espace Information Jeunesse-CyberJ d'Etang sur Arroux ,,,,,,
4.180601,46.867816,71190,ETANG-SUR-ARROUX,71,MSAP Pôle de proximité Etang sur Arroux,2 bis rue d'Autun,,,,,,
4.513147,46.759896,71200,LE CREUSOT,71,Espace Cyber Jeunes : Mission Locale Le Creusot,Espace Cyber Jeunes : Mission Locale Le Creusot ,,,,,,
4.413349,46.806814,71200,LE CREUSOT,71,FabLab UtoPi,12  rue de la Fonderie,http://www.fablab-utopi.org/,,,,,
4.441198,46.793445,71200,LE CREUSOT,71,L'arobase,L'arobase ,,,,,,
4.421359,46.800073,71200,LE CREUSOT,71,Médiathèque municipale du Creusot - EPN,1 rue Edith Cavell,,,,,,
4.40393,46.829923,71200,SAINT-SERNIN-DU-BOIS,71,MSAP Saint-Sernin du Bois,Place Salignac Fénelon,,,,,,
4.429984,46.80645,71200,LE CREUSOT,71,Pôle Insertion emploi - Association AGIRE,5 avenue François Mitterrand,agire-cucm.fr,,,,,
4.465704,46.749907,71210,MONTCHANIN,71,CLIC - EPN de Montchanin,12 rue Lamartine,,,,,,
4.465704,46.749907,71210,ECUISSES,71,Cyber jeunes d'Ecuisses,40 route du Canal,,,,,,
4.514078,46.761851,71210,ECUISSES,71,MSAP Ecuisses,Rue du 19 Mars 1962,,,,,,
4.438949,46.481012,71220,SAINT-BONNET-DE-JOUX,71,MFS PIMMS Val de Joux,Place de la Poste,,,,,,
4.369329,46.64065,71230,SAINT VALLIER,71,Espace Public Numérique de St Vallier - ECLA,Rue Victor Hugo,,,,,,
46.644575,4.861923,71240,SENNECEY LE GRAND,71,MFS Sennecey le Grand,32 Rue des Mûriers,,,,,,
4.661804,46.432234,71250,CLUNY,71,FabLab Clunisois,2 rue Porte de Paris,http://www.fablabclunisois.fr,,,,,
4.98966,46.623553,71250,MAZILLE,71,Maison familiale du Clunisois,Maison familiale du Clunisois ,,,,,,
4.651346,46.429922,71250,CLUNY,71,MSAP Clunisois,5 place du marché,,,,,,
4.598063,46.520024,71250,SALORNAY-SUR-GUYE,71,MSAP Salornay-sur-Guye,12 place Gandin,,,,,,
46.8865,5.26059,71270,PIERRE DE BRESSE,71,Association Tremplin,5 place de la Mairie,www.ateliertremplin.fr,,,,,
46.559931,5.002134,71290,CUISERY,71,CAF - Point Relais de Cuisery, Rue de l'Eglise,,,,,,
46.5597,5.00215,71290,CUISERY,71,Centre Animation Sociale et Culturelle ,Rue de l'Eglise,http://centreanimation-cuisery.e-monsite.com,,,,,
4.35182,46.690645,71290,SIMANDRE,71,Simandre Info',Simandre Info' ,,,,,,
4.891945,46.773882,71300,MONTCEAU LES MINES,71,Cyber-base Ecole du Plessis,Cyber-base Ecole du Plessis ,,,,,,
4.352602,46.691208,71300,MONTCEAU LES MINES,71,EPN Montceau - Espace Trait d'Union,Rue de Mâcon,,,,,,
46.800258,5.186782,71310,MERVANS,71,MSAP Mervans, Place de la Mairie,,,,,,
4.135983,46.709121,71320,TOULON-SUR-ARROUX,71,MSAP Moulin des Roches,rue du moulin,,,,,,
46.753,5.24316,71330,SAINT GERMAIN DU BOIS,71,Mairie de Saint Germain du Bois,14 place du Marché,www.saintgermaindubois.fr,,,,,
5.240823,46.749576,71330,SAINT-GERMAIN-DU-BOIS,71,MSAP Saint-Germain du Bois,14  Place du Marché,,,,,,
46.7856,4.84631,71332,CHALON SUR SAONE,71,CPAM Chalon ,24 rue Jean Moulin,Ameli.fr,,,,,
4.016749,46.213316,71340,MELAY,71,MFS PIMMS de Melay,Le Bourg,,,,,,
46.895699,5.024282,71350,VERDUN SUR LE DOUBS,71,MFS Verdun sur le Doubs,16 Rue de la République,,,,,,
4.51379,46.990895,71360,EPINAC,71,MSAP Epinac,place Charles de Gaulle,,,,,,
46.7059,5.05174,71370,SAINT-ETIENNE-EN-BRESSE,71,MSAP Saint-Etienne-en-Bresse,17 place de la Mairie,www.saint-etienne-en-bresse.fr ,,,,,
4.709445,46.753719,71380,SAINT MARCEL,71,Agora des Jeunes - Espace Multimédia,Agora des Jeunes - Espace Multimédia ,,,,,,
46.7741,4.89249,71380,SAINT-MARCEL,71,Espace Multimédia de Saint-Marcel - Agor@95,95 grande Rue,https://www.facebook.com/marc.agora.7,,,,,
4.300509,46.958726,71390,SAINT DESERT,71,EPN de St Désert,,,,,,,
4.302105,46.959549,71400,AUTUN,71,CiLEF - Mission Locale de l'Autunois,1 rue des Pierres,cilef-orientation-emploi.fr,,,,,
4.304719,46.963123,71400,AUTUN,71,Espace Cyber jeunes. MIFE d Autun,Espace Cyber jeunes. MIFE d Autun ,,,,,,
4.270113,46.970199,71400,AUTUN,71,FabLab de Bellevue,Rue du Maquis de l’Autunois,https://www.grandautunoismorvan.fr/l-economie/centre-de-ressources-numeriques/fablab-241.html,,,,,
4.270113,46.970199,71400,AUTUN,71,La pépinière numérique de Bellevue,Rue du Maquis de l’Autunois,https://www.grandautunoismorvan.fr/l-economie/centre-de-ressources-numeriques/telecentre-244.html,,,,,
4.300739,46.604773,71420,CIRY LE NOBLE,71,Espace Public Numérique de Ciry le Noble - Bibliothèque,Rue Pautet,,,,,,
4.394146,46.699554,71450,BLANZY,71,EPN de Blanzy,rue du 11 novembre 1918,,,,,,
4.670813,46.580813,71460,SAVIGNY-Sur-GROSNE,71,MSAP Communauté de communes entre Saone et Grosne,1 route des Prairies,,,,,,
46.556054,5.164285,71470,SAINTE CROIX EN BRESSE,71,MSAP Sainte Croix en Bresse,180 Route du Bourg,,,,,,
5.164285,46.556054,71470,SAINTE-CROIX,71,MSAP Sainte-Croix,180 route du Bourg,,,,,,
46.49473,5.38931,71480,CUISEAUX,71,CAF - Point Relais de Cuiseaux, Château des Princes d'Orange,,,,,,
4.574612,46.869007,71490,COUCHES,71,MSAP Pôle de Proximité de Couches,Rue des Grands Bois,,,,,,
46.628,5.21709,71500,LOUHANS,71,Association Le Pont - Accueil de jour Louhans,3 rue de Bram,,,,,,
46.624455,5.233142,71500,LOUHANS,71,CAF - Antenne de Louhans, Avenue Ferdinand Point ,,,,,,
46.6268,5.22663,71500,LOUHANS,71,CLEFS71,4 promenade des Cordeliers,,,,,,
4.944707,46.876464,71500,LOUHANS,71,Couveuse Potentiel,Couveuse Potentiel ,,,,,,
5.268276,46.658298,71500,MONTIGNY-PRES-LOUHANS,71,Labo'M,1400 route de Louhans,http://www.labo-m.club,,,,,
5.226634,46.626833,71500,LOUHANS,71,Mission Locale de La Bresse Louhanaise,4 promenade des Cordeliers,,,,,,
5.226486,46.627152,71500,LOUHANS,71,Point central cyber jeunes de Louhans,Point central cyber jeunes de Louhans ,,,,,,
4.638973,46.847419,71510,SAINT-LEGER-SUR-DHEUNE,71,MSAP Saint-Léger-sur-Dheune,7 rue Thernaud,,,,,,
4.51016,46.378825,71520,DOMPIERRE LES ORMES,71,Espace de coworking CCSCMB,Espace de coworking ZI Geneve Océan - RN79,https://www.scmb71.com/economie/economie-infrastructures/espaces-coworking,non,,,,
4.48266,46.3073,71520,MATOUR,71,MSAP Haute-Grosne,Maison des associations n°4,,,,,,
46.8194,4.83618,71530,CHAMPFORGEUIL,71,CCAS Champforgeuil - Centre d'accueil pluriel (CAP),7 rue Charles Lemaux,,,,,,
46.8132,4.8656,71530,CRISSEY,71,Les Valoristes Bourguignons,16 rue Ferrée,www.valoristesbourguignons.com,,,,,
4.730697,46.197181,71570,ROMANECHE-THORINS,71,SOLUTIONS INGÉNIERIE DIGITAL FORMATION (SID FORMATION),921 route du Moulin à Vent,,,,,,
46.6917,5.37076,71580,SAILLENARD,71,MSAP Saillenard,136 rue de l'Eglise,,,,,,
46.8759,4.94496,71590,GERGY,71,Espace multimédia de Gergy,8A rue de la Velle,https://www.ifac.asso.fr/Espace-Public-Numerique-Gergy,,,,,
4.742189,46.781466,71600,PARAY LE MONIAL,71,Espace socio-culturel de Paray le Monnial,Espace socio-culturel de Paray le Monnial ,,,,,,
46.7822,4.74547,71640,GIVRY,71,Bibliothèque municipale de Givry,Place de l'église,http://givry.opac3d.fr/search.php?action=accueil,,,,,
4.467166,46.808152,71640,GIVRY,71,Espace Multimédia de Givry,Espace Multimédia de Givry ,,,,,,
4.467166,46.808152,71670,LE BREUIL,71,Espace Public Numérique du Breuil,46 route de Couches,,,,,,
4.1942,46.3319,71710,MARMAGNE,71,Centre Multimédia Communautaire Arroux Mesvrin,Centre Multimédia Communautaire Arroux Mesvrin ,,,,,,
4.354793,46.836264,71710,LES BIZOTS,71,Espace Public Numérique des Bizots,Le Bourg,,,,,,
4.812186,46.305827,71800,OYE,71,Foyer rural d'Oye,Foyer rural d'Oye ,,,,,,
4.718166,46.345269,71850,CHARNAY LES MACON,71,Point Cyb de Charnay les Macon,Point Cyb de Charnay les Macon ,,,,,,
46.7985,4.80816,71880,CHATENOY LE ROYAL,71,CCAS Chatenoy le Royal,2 rue Colette,,,,,,
4.720257,46.344964,71960,LA ROCHE VINEUSE,71,Ecogit'Actions,60 avenue de la gare,http://www.ecogitactions.com,,,,,
4.749492,46.303527,71960,DAVAYE,71,Viti Lab - CA71,,,,,,,
3.587097,47.800922,89000,AUXERRE,89,Atelier des Beaux Boulons,4 rue Paul Doumer,https://www.beauxboulons.com/,,,,,
3.564627,47.806545,89000,AUXERRE,89,Bibliothèque municipale Auxerre,Rue d Ardillière,perso.wanadoo.fr/bibaux,,,,,
3.551932,47.797768,89000,AUXERRE,89,Couveuse Potentiel,8 Avenue Delacroix,,,,,,
3.551932,47.797768,89000,AUXERRE,89,Cyber Base Emploi - Maison de l'Emploi et de la Formation de l'Auxerrois,8 Avenue Delacroix,www.mdeauxerrois.com,,,,,
3.564627,47.806545,89000,AUXERRE,89,Handi Lab - EPNAK,,,,,,,
3.587097,47.800922,89000,AUXERRE,89,Les Riverains,4 rue Paul Doumer,https://www.lesriverains.org/,,,,,
3.567285,47.792099,89000,AUXERRE,89,Maison de la jeunesse Auxerre,1 bis place de l'Arquebuse,mjauxerre.cyber-base.org,,,,,
3.550152,47.800568,89000,AUXERRE,89,Mission Locale de l'Auxerrois,1 avenue Rodin,,,,,,
3.569976,47.795663,89000,AUXERRE,89,Numog,9 place du Maréchal Leclerc,https://www.numog.com/,,,,,
3.25942,48.161076,89100,GRON,89,EPN  Maison familiale rurale du Sénonais,24  rue Haute,www.mfrgron.com,,,,,
3.286467,48.198624,89100,SENS,89,FabLab Pixelibur,50 rue du Thenard,https://www.facebook.com/pg/FablabSens/,,,,,
3.275654,48.191487,89100,SENS,89,Lycée polyvalent régional,29  rue de la Liberté,www.nord-cotedor.net,,,,,
3.308496,48.19638,89100,SENS,89,Mission Locale du Sénonais,6 rue Henri Sanglier,www.missionlocaledusenonais.com,,,,,
3.276234,48.190601,89100,SENS,89,Ville de Sens - Service Informatique,100  rue de la République,,,,,,
3.09557,47.887432,89120,CHARNY,89,MFS Charny Orée de Puisaye,3  Route de Prunoy,,,,,,
3.294344,47.736786,89130,TOUCY,89,Bibliothèque municipale Toucy,7 rue des Montagnes,,,,,,
3.260694,48.343793,89140,SERGINES,89,MSAP Yonne Nord,18 rue de l'Hôtel de Ville,,,,,,
4.163566,47.775155,89160,ANCY-LE-FRANC,89,MSAP Ancy le Franc,11 Place Clermont Tonnerre,,,,,,
3.069992,47.642826,89170,SAINT-FARGEAU,89,MSAP Saint-Fargeau,rue du Moulin de l'Arche,,,,,,
3.557569,48.233735,89190,VILLENEUVE-L'ARCHEVÊQUE,89,MSAP Villeneuve l'Archevêque,1 B Place de la Liberté,,,,,,
3.917856,47.486092,89200,AVALLON,89,Maison de l'Image et des nouvelles technologies Avallon,Avenue Pierre Vigoureux,www.maisonimage.org,,,,,
3.907243,47.487707,89200,AVALLON,89,Mission Locale Rurale du Tonnerrois et de l'Avalonnais Avallon,55  grande rue A. Briand,www.la-place.org,,,,,
2.948545,47.70093,89220,BLENEAU,89,MSAP Bléneau,Place de la Libération,,,,,,
3.682111,47.896287,89230,VENOUSE,89,La Grange de Beauvais,rue de la Mairie,https://www.helloasso.com/associations/association-grange-de-beauvais,,,,,
3.600869,47.90281,89250,SEIGNELAY,89,MSAP Seignelay,6 rue Gatelot,,,,,,
3.759823,47.603363,89270,ARCY-SUR-CURE,89,MSAP Agence postale Arcy-sur-cure,1 rue du fossé au veau,,,,,,
3.680576,47.599156,89270,MAILLY-LA-VILLE,89,MSAP Mailly-la-Ville,18 rue Camelinat,,,,,,
3.41631,47.977261,89300,JOIGNY,89,Espace jeunes Cyber-base de Joigny,2 Rue des Ingles,www.cyber-base.org,,,,,
3.994644,47.694475,89310,NOYERS,89,MSAP Noyers,15 Promenade du Pré de l'Echelle,,,,,,
3.426606,48.167365,89320,LES VALLEES DE LA VANNE,89,MFS les Vallées de la Vanne,5 route du miroir,,,,,,
3.313342,48.025796,89330,VILLEVALLIER,89,Maison Familiale Rurale du Jovinien,25  rue Verdeau,,,,,,
3.063466,48.332378,89340,VILLENEUVE-LA-GUYARD,89,MSAP du Sivom du Nord Senonais,,,,,,,
3.071567,47.779869,89350,CHAMPIGNELLES,89,MSAP Champignelles,5 rue Arsène Duguyot,,,,,,
3.524772,47.960738,89400,MIGENNES,89,Mission Locale du Migennois et du Jovinien,25 rue Gabriel Cordier,missionslocales-bfc.fr/mission-locale-migennois-jovinien/,,,,,
4.085383,47.847308,89430,TANLAY,89,MSAP Tanlay,1 rue Haute de Fossés,,,,,,
4.004362,47.585063,89440,L'ISLE SUR SEREIN,89,MSAP L'isle sur Serein,3 avenue du parc,,,,,,
3.755074,47.480742,89450,ASQUINS,89,Club informatique asquinois,12 grande rue,,,,,,
3.69016,47.68326,89460,CRAVANT,89,MSAP Cravant,Rue d'Orléans,,,,,,
3.53977,47.526418,89480,COULANGES-SUR-YONNE,89,MSAP Coulanges sur Yonne,place de l'Hôtel de Ville,,,,,,
3.195223,47.617932,89520,SAINT-SAUVEUR-EN-PUISAYE,89,MSAP Saint-Sauveur en Puisaye,1   Place Paultre des Ormes,,,,,,
3.718873,47.998821,89600,SAINT FLORENTIN,89,Cyber Base Emploi Saint-Florentin,7 rue de l'Ile de France,www.mdeauxerrois.com,,,,,
3.99764,47.368857,89630,QUARRE-LES-TOMBES,89,MSAP Quarré-les-Tombes,1 place de l'Eglise,,,,,,
3.634247,47.531499,89660,CHÂTEL-CENSOIR,89,MSAP Châtel-Censoir,1 Place Aristide Briand,,,,,,
3.636625,47.596704,89660,MAILLY-LE-CHÂTEAU,89,MSAP Mailly le Château,32 Rue Comtesse Mahaut,,,,,,
2.998647,48.202902,89690,CHEROY,89,MFS Chéroy,13 rue de Paris,,,,,,
3.974495,47.857774,89700,TONNERRE,89,Mission Locale du Tonnerrois et de l'Avallonnais,3 rue Claude Aillot,mirta.com,,,,,
3.974558,47.858071,89700,TONNERRE,89,MSAP Tonnerre,2 avenue de la Gare - Immeuble Sémaphore,,,,,,
3.799606,47.814028,89800,CHABLIS,89,Centre communal d'action sociale Chablis,7  bd docteur Tacussel,,,,,,
6.854932,47.63796,90000,BELFORT,90,Bureau Information Jeunesse de Belfort,3 rue Jules Vallès,http://www.jeunes-fc.com/,,,,,
6.844077,47.64256,90000,BELFORT,90,Innovation Crunch Lab,Rue Becquerel,http://openlab.utbm.fr/,,,,,
6.843149,47.642246,90000,BELFORT,90,La Cinquième Dimension,3  rue Edouard Branly,http://www.la5d.fr/,,,,,
6.857164,47.641017,90000,BELFORT,90,Les Médianautes,53 Faubourg des Ancêtres,http://www.lesmedianautes.com/,,,,,
6.843149,47.642246,90000,BELFORT,90,L'Usine,3  rue Edouard Branly,http://www.lusineabelfort.fr,,,,,
6.84421,47.634201,90020,BELFORT,90,Mission Locale du territoire de Belfort,12 place de l'Europe,mission-locale90.fr,,,,,
6.963542,47.700048,90110,SAINT GERMAIN LE CHATELET,90,A.I.L.E. - club informatique,Association AILE Club informatique Ecole élémentaire 21  rue Principale,,,,,,
6.917253,47.564492,90140,BOUROGNE,90,Espace Multimédia Gantner,1 rue de la Varonne,http://www.espacemultimediagantner.cg90.net/,,,,,
6.821007,47.745098,90200,GIROMAGNY,90,Point Information Jeunesse de Giromagny,Place des Commandos d'Afrique,http://www.csgiro.fr.st/,,,,,